{
"type": "FeatureCollection",
"name": "ВЛ-0.4 кВ",
"crs": { "type": "name", "properties": { "name": "urn:ogc:def:crs:OGC:1.3:CRS84" } },
"features": [
{ "type": "Feature", "properties": { "Name": "110", "description": "https://www.google.com/maps/d/viewer?hl=ru&mid=1oDOLmbGHhuX_m3x60fGNtRfbJVLvJmo&ll=44.329183852286796%2C66.5088325&z=15", "tessellate": 1, "extrude": 0, "visibility": -1 }, "geometry": { "type": "LineString", "coordinates": [ [ 66.502194, 44.326241, 0.0 ], [ 66.50256, 44.326528, 0.0 ], [ 66.502859, 44.326786, 0.0 ], [ 66.503134, 44.327061, 0.0 ], [ 66.503459, 44.327284, 0.0 ], [ 66.503823, 44.327586, 0.0 ], [ 66.504105, 44.327843, 0.0 ], [ 66.504268, 44.327832, 0.0 ], [ 66.504105, 44.327843, 0.0 ], [ 66.503705, 44.32809, 0.0 ], [ 66.503337, 44.328292, 0.0 ], [ 66.503069, 44.328051, 0.0 ], [ 66.502757, 44.327812, 0.0 ], [ 66.502425, 44.32753, 0.0 ], [ 66.502093, 44.327274, 0.0 ], [ 66.501732, 44.326979, 0.0 ], [ 66.501426, 44.326735, 0.0 ], [ 66.501093, 44.326446, 0.0 ], [ 66.500786, 44.326199, 0.0 ], [ 66.500474, 44.325926, 0.0 ], [ 66.500183, 44.32566, 0.0 ], [ 66.499873, 44.325426, 0.0 ], [ 66.49961, 44.325208, 0.0 ], [ 66.499338, 44.32497, 0.0 ], [ 66.499439, 44.324772, 0.0 ], [ 66.499338, 44.32497, 0.0 ], [ 66.49961, 44.325208, 0.0 ], [ 66.499873, 44.325426, 0.0 ], [ 66.500183, 44.32566, 0.0 ], [ 66.500474, 44.325926, 0.0 ], [ 66.500786, 44.326199, 0.0 ], [ 66.501093, 44.326446, 0.0 ], [ 66.501426, 44.326735, 0.0 ], [ 66.501732, 44.326979, 0.0 ], [ 66.502093, 44.327274, 0.0 ], [ 66.502425, 44.32753, 0.0 ], [ 66.502757, 44.327812, 0.0 ], [ 66.503069, 44.328051, 0.0 ], [ 66.503337, 44.328292, 0.0 ], [ 66.502996, 44.328497, 0.0 ], [ 66.502659, 44.328275, 0.0 ], [ 66.502361, 44.328014, 0.0 ], [ 66.502024, 44.327785, 0.0 ], [ 66.501713, 44.327547, 0.0 ], [ 66.501267, 44.327213, 0.0 ], [ 66.500869, 44.326925, 0.0 ], [ 66.500416, 44.326585, 0.0 ], [ 66.500067, 44.326333, 0.0 ], [ 66.500416, 44.326585, 0.0 ], [ 66.500869, 44.326925, 0.0 ], [ 66.501267, 44.327213, 0.0 ], [ 66.501713, 44.327547, 0.0 ], [ 66.502024, 44.327785, 0.0 ], [ 66.502361, 44.328014, 0.0 ], [ 66.502659, 44.328275, 0.0 ], [ 66.502996, 44.328497, 0.0 ], [ 66.503167, 44.328629, 0.0 ], [ 66.50345, 44.328869, 0.0 ], [ 66.503732, 44.329069, 0.0 ], [ 66.5039, 44.329279, 0.0 ], [ 66.503732, 44.329069, 0.0 ], [ 66.50345, 44.328869, 0.0 ], [ 66.503167, 44.328629, 0.0 ], [ 66.502996, 44.328497, 0.0 ], [ 66.503337, 44.328292, 0.0 ], [ 66.503766, 44.328604, 0.0 ], [ 66.503337, 44.328292, 0.0 ], [ 66.503705, 44.32809, 0.0 ], [ 66.504105, 44.327843, 0.0 ], [ 66.50427, 44.327832, 0.0 ], [ 66.50424, 44.327769, 0.0 ], [ 66.505212, 44.327076, 0.0 ], [ 66.505521, 44.326854, 0.0 ], [ 66.504817, 44.326331, 0.0 ], [ 66.504148, 44.325858, 0.0 ], [ 66.503485, 44.325373, 0.0 ], [ 66.503151, 44.325123, 0.0 ], [ 66.502788, 44.32487, 0.0 ], [ 66.502448, 44.324601, 0.0 ], [ 66.502016, 44.324332, 0.0 ], [ 66.501643, 44.324041, 0.0 ], [ 66.502016, 44.324332, 0.0 ], [ 66.501256, 44.324483, 0.0 ], [ 66.502016, 44.324332, 0.0 ], [ 66.502448, 44.324601, 0.0 ], [ 66.502788, 44.32487, 0.0 ], [ 66.503151, 44.325123, 0.0 ], [ 66.503485, 44.325373, 0.0 ], [ 66.504148, 44.325858, 0.0 ], [ 66.504817, 44.326331, 0.0 ], [ 66.505521, 44.326854, 0.0 ], [ 66.505146, 44.326572, 0.0 ], [ 66.506012, 44.326304, 0.0 ], [ 66.506846, 44.326049, 0.0 ], [ 66.507301, 44.325908, 0.0 ], [ 66.507554, 44.325833, 0.0 ], [ 66.507301, 44.325908, 0.0 ], [ 66.506933, 44.325448, 0.0 ], [ 66.506681, 44.325025, 0.0 ], [ 66.506481, 44.324745, 0.0 ], [ 66.506296, 44.324473, 0.0 ], [ 66.506544, 44.324378, 0.0 ], [ 66.506296, 44.324473, 0.0 ], [ 66.505719, 44.323673, 0.0 ], [ 66.505317, 44.323104, 0.0 ], [ 66.505116, 44.322821, 0.0 ], [ 66.505469, 44.322755, 0.0 ], [ 66.505116, 44.322821, 0.0 ], [ 66.505317, 44.323104, 0.0 ], [ 66.505719, 44.323673, 0.0 ], [ 66.506296, 44.324473, 0.0 ], [ 66.506481, 44.324745, 0.0 ], [ 66.506681, 44.325025, 0.0 ], [ 66.506933, 44.325448, 0.0 ], [ 66.507301, 44.325908, 0.0 ], [ 66.506846, 44.326049, 0.0 ], [ 66.506012, 44.326304, 0.0 ], [ 66.505146, 44.326572, 0.0 ], [ 66.505521, 44.326854, 0.0 ], [ 66.505818, 44.327129, 0.0 ], [ 66.506086, 44.327386, 0.0 ], [ 66.506305, 44.327582, 0.0 ], [ 66.506557, 44.327778, 0.0 ], [ 66.506907, 44.328013, 0.0 ], [ 66.507211, 44.328218, 0.0 ], [ 66.507588, 44.328487, 0.0 ], [ 66.507211, 44.328218, 0.0 ], [ 66.506907, 44.328013, 0.0 ], [ 66.506557, 44.327778, 0.0 ], [ 66.506305, 44.327582, 0.0 ], [ 66.506086, 44.327386, 0.0 ], [ 66.505818, 44.327129, 0.0 ], [ 66.505521, 44.326854, 0.0 ], [ 66.505212, 44.327076, 0.0 ], [ 66.50424, 44.327769, 0.0 ], [ 66.50427, 44.327831, 0.0 ], [ 66.504325, 44.327843, 0.0 ], [ 66.504521, 44.328026, 0.0 ], [ 66.504854, 44.328317, 0.0 ], [ 66.505148, 44.328593, 0.0 ], [ 66.505553, 44.32899, 0.0 ], [ 66.505766, 44.329111, 0.0 ], [ 66.506085, 44.329336, 0.0 ], [ 66.506423, 44.329613, 0.0 ], [ 66.506796, 44.329336, 0.0 ], [ 66.507035, 44.329133, 0.0 ], [ 66.506796, 44.329336, 0.0 ], [ 66.506423, 44.329613, 0.0 ], [ 66.506697, 44.329807, 0.0 ], [ 66.507006, 44.330055, 0.0 ], [ 66.50739, 44.330343, 0.0 ], [ 66.507681, 44.330571, 0.0 ], [ 66.508015, 44.330834, 0.0 ], [ 66.508404, 44.331132, 0.0 ], [ 66.508761, 44.33141, 0.0 ], [ 66.509086, 44.331659, 0.0 ], [ 66.509447, 44.331934, 0.0 ], [ 66.508864, 44.332034, 0.0 ], [ 66.509447, 44.331934, 0.0 ], [ 66.509786, 44.332086, 0.0 ], [ 66.509676, 44.332237, 0.0 ], [ 66.509786, 44.332086, 0.0 ], [ 66.510141, 44.332233, 0.0 ], [ 66.510586, 44.332433, 0.0 ], [ 66.510953, 44.332602, 0.0 ], [ 66.511431, 44.332802, 0.0 ], [ 66.511856, 44.33299, 0.0 ], [ 66.512325, 44.333205, 0.0 ], [ 66.512532, 44.332925, 0.0 ], [ 66.512325, 44.333205, 0.0 ], [ 66.512703, 44.333471, 0.0 ], [ 66.513055, 44.333737, 0.0 ], [ 66.513453, 44.334037, 0.0 ], [ 66.513837, 44.33433, 0.0 ], [ 66.514143, 44.334557, 0.0 ], [ 66.514389, 44.334219, 0.0 ], [ 66.514633, 44.333898, 0.0 ], [ 66.51486, 44.33359, 0.0 ], [ 66.515249, 44.333747, 0.0 ], [ 66.515605, 44.333858, 0.0 ], [ 66.516081, 44.334029, 0.0 ], [ 66.516416, 44.334182, 0.0 ], [ 66.516671, 44.334356, 0.0 ], [ 66.516819, 44.334668, 0.0 ], [ 66.51739, 44.334995, 0.0 ], [ 66.518327, 44.335612, 0.0 ] ] } },
{ "type": "Feature", "properties": { "Name": "Линия 1", "description": "connect 185.121.82.29:27027", "tessellate": 1, "extrude": 0, "visibility": -1 }, "geometry": { "type": "LineString", "coordinates": [ [ 66.517425, 44.339324, 0.0 ], [ 66.517765, 44.339669, 0.0 ], [ 66.518094, 44.33995, 0.0 ], [ 66.518167, 44.34017, 0.0 ], [ 66.51824, 44.340202, 0.0 ], [ 66.518309, 44.340272, 0.0 ], [ 66.518436, 44.340387, 0.0 ], [ 66.51879, 44.340189, 0.0 ], [ 66.519266, 44.33994, 0.0 ], [ 66.519356, 44.339886, 0.0 ], [ 66.519894, 44.339602, 0.0 ], [ 66.520398, 44.339332, 0.0 ], [ 66.520923, 44.339057, 0.0 ], [ 66.521427, 44.338796, 0.0 ], [ 66.521856, 44.338574, 0.0 ], [ 66.522336, 44.338426, 0.0 ], [ 66.522563, 44.338658, 0.0 ], [ 66.522803, 44.338915, 0.0 ], [ 66.523037, 44.339162, 0.0 ], [ 66.523244, 44.339371, 0.0 ], [ 66.523445, 44.33959, 0.0 ], [ 66.523636, 44.339792, 0.0 ], [ 66.523898, 44.340065, 0.0 ], [ 66.523636, 44.339792, 0.0 ], [ 66.523445, 44.33959, 0.0 ], [ 66.523244, 44.339371, 0.0 ], [ 66.523037, 44.339162, 0.0 ], [ 66.522803, 44.338915, 0.0 ], [ 66.522563, 44.338658, 0.0 ], [ 66.522336, 44.338426, 0.0 ], [ 66.521856, 44.338574, 0.0 ], [ 66.521427, 44.338796, 0.0 ], [ 66.520923, 44.339057, 0.0 ], [ 66.520398, 44.339332, 0.0 ], [ 66.519894, 44.339602, 0.0 ], [ 66.519356, 44.339886, 0.0 ], [ 66.519266, 44.33994, 0.0 ], [ 66.51879, 44.340189, 0.0 ], [ 66.518436, 44.340387, 0.0 ], [ 66.518309, 44.340272, 0.0 ], [ 66.51824, 44.340201, 0.0 ], [ 66.518384, 44.340229, 0.0 ], [ 66.518753, 44.340057, 0.0 ], [ 66.519145, 44.339847, 0.0 ], [ 66.519068, 44.339776, 0.0 ], [ 66.518732, 44.339556, 0.0 ], [ 66.518383, 44.339318, 0.0 ], [ 66.518732, 44.339556, 0.0 ], [ 66.519068, 44.339776, 0.0 ], [ 66.519145, 44.339847, 0.0 ], [ 66.519454, 44.339681, 0.0 ], [ 66.519716, 44.339546, 0.0 ], [ 66.519565, 44.339417, 0.0 ], [ 66.519312, 44.339188, 0.0 ], [ 66.518961, 44.338897, 0.0 ], [ 66.518677, 44.338629, 0.0 ], [ 66.518405, 44.338408, 0.0 ], [ 66.518109, 44.338581, 0.0 ], [ 66.517768, 44.338811, 0.0 ], [ 66.518109, 44.338581, 0.0 ], [ 66.518405, 44.338408, 0.0 ], [ 66.518677, 44.338629, 0.0 ], [ 66.518961, 44.338897, 0.0 ], [ 66.519312, 44.339188, 0.0 ], [ 66.519565, 44.339417, 0.0 ], [ 66.519716, 44.339546, 0.0 ], [ 66.520181, 44.33931, 0.0 ], [ 66.52062, 44.339072, 0.0 ], [ 66.521018, 44.338868, 0.0 ], [ 66.521215, 44.338767, 0.0 ], [ 66.521156, 44.338692, 0.0 ], [ 66.520935, 44.338436, 0.0 ], [ 66.52061, 44.338105, 0.0 ], [ 66.520363, 44.337825, 0.0 ], [ 66.520115, 44.33755, 0.0 ], [ 66.519787, 44.337207, 0.0 ], [ 66.520115, 44.33755, 0.0 ], [ 66.520363, 44.337825, 0.0 ], [ 66.52061, 44.338105, 0.0 ], [ 66.520935, 44.338436, 0.0 ], [ 66.521156, 44.338692, 0.0 ], [ 66.521215, 44.338767, 0.0 ], [ 66.521666, 44.338534, 0.0 ], [ 66.52216, 44.338265, 0.0 ], [ 66.522072, 44.338198, 0.0 ], [ 66.521899, 44.338012, 0.0 ], [ 66.521634, 44.337729, 0.0 ], [ 66.521362, 44.33744, 0.0 ], [ 66.521076, 44.337143, 0.0 ], [ 66.520734, 44.336804, 0.0 ], [ 66.521076, 44.337143, 0.0 ], [ 66.521362, 44.33744, 0.0 ], [ 66.521634, 44.337729, 0.0 ], [ 66.521899, 44.338012, 0.0 ], [ 66.522072, 44.338198, 0.0 ], [ 66.52216, 44.338265, 0.0 ], [ 66.522454, 44.338147, 0.0 ], [ 66.522819, 44.337951, 0.0 ] ] } },
{ "type": "Feature", "properties": { "Name": "Линия 1", "description": "https://www.google.com/maps/d/viewer?hl=ru&mid=1oDOLmbGHhuX_m3x60fGNtRfbJVLvJmo&ll=44.329183852286796%2C66.5088325&z=15", "tessellate": 1, "extrude": 0, "visibility": -1 }, "geometry": { "type": "LineString", "coordinates": [ [ 66.522971, 44.33805, 0.0 ], [ 66.523011, 44.338069, 0.0 ], [ 66.523146, 44.337926, 0.0 ], [ 66.523557, 44.338344, 0.0 ], [ 66.524125, 44.338922, 0.0 ], [ 66.524409, 44.339218, 0.0 ], [ 66.524125, 44.338922, 0.0 ], [ 66.523557, 44.338344, 0.0 ], [ 66.523146, 44.337926, 0.0 ], [ 66.524157, 44.337399, 0.0 ], [ 66.524596, 44.337181, 0.0 ], [ 66.524693, 44.337267, 0.0 ], [ 66.525312, 44.337922, 0.0 ], [ 66.525895, 44.338539, 0.0 ], [ 66.526217, 44.338894, 0.0 ], [ 66.526735, 44.339448, 0.0 ], [ 66.527194, 44.339928, 0.0 ], [ 66.527616, 44.34039, 0.0 ], [ 66.52752, 44.340641, 0.0 ], [ 66.527616, 44.34039, 0.0 ], [ 66.527194, 44.339928, 0.0 ], [ 66.526735, 44.339448, 0.0 ], [ 66.526217, 44.338894, 0.0 ], [ 66.52633, 44.338787, 0.0 ], [ 66.526548, 44.338526, 0.0 ], [ 66.526962, 44.338206, 0.0 ], [ 66.527101, 44.338315, 0.0 ], [ 66.527342, 44.338521, 0.0 ], [ 66.527608, 44.338757, 0.0 ], [ 66.52788, 44.338976, 0.0 ], [ 66.528137, 44.339206, 0.0 ], [ 66.528404, 44.339452, 0.0 ], [ 66.528718, 44.339725, 0.0 ], [ 66.528404, 44.339452, 0.0 ], [ 66.528137, 44.339206, 0.0 ], [ 66.52788, 44.338976, 0.0 ], [ 66.527608, 44.338757, 0.0 ], [ 66.527342, 44.338521, 0.0 ], [ 66.527101, 44.338315, 0.0 ], [ 66.526962, 44.338206, 0.0 ], [ 66.526548, 44.338526, 0.0 ], [ 66.52633, 44.338787, 0.0 ], [ 66.526217, 44.338894, 0.0 ], [ 66.525895, 44.338539, 0.0 ], [ 66.525312, 44.337922, 0.0 ], [ 66.524693, 44.337267, 0.0 ], [ 66.524596, 44.337181, 0.0 ], [ 66.525021, 44.336968, 0.0 ], [ 66.525508, 44.336714, 0.0 ], [ 66.525605, 44.336816, 0.0 ], [ 66.525863, 44.337071, 0.0 ], [ 66.526085, 44.337307, 0.0 ], [ 66.526404, 44.337177, 0.0 ], [ 66.52666, 44.337314, 0.0 ], [ 66.526404, 44.337177, 0.0 ], [ 66.526659, 44.337009, 0.0 ], [ 66.526947, 44.336813, 0.0 ], [ 66.527213, 44.336653, 0.0 ], [ 66.527501, 44.33638, 0.0 ], [ 66.527213, 44.336653, 0.0 ], [ 66.526947, 44.336813, 0.0 ], [ 66.526659, 44.337009, 0.0 ], [ 66.526404, 44.337177, 0.0 ], [ 66.526085, 44.337307, 0.0 ], [ 66.525863, 44.337071, 0.0 ], [ 66.525605, 44.336816, 0.0 ], [ 66.525508, 44.336714, 0.0 ], [ 66.525924, 44.336497, 0.0 ], [ 66.52637, 44.33623, 0.0 ], [ 66.526716, 44.336025, 0.0 ], [ 66.52705, 44.335832, 0.0 ], [ 66.526783, 44.33558, 0.0 ], [ 66.527125, 44.335135, 0.0 ], [ 66.527531, 44.334597, 0.0 ], [ 66.527944, 44.33405, 0.0 ], [ 66.528368, 44.333483, 0.0 ], [ 66.528773, 44.332943, 0.0 ], [ 66.529058, 44.33257, 0.0 ], [ 66.529281, 44.33228, 0.0 ], [ 66.529604, 44.33212, 0.0 ] ] } },
{ "type": "Feature", "properties": { "Name": "Линия 84", "tessellate": 1, "extrude": 0, "visibility": -1 }, "geometry": { "type": "LineString", "coordinates": [ [ 66.507867, 44.333756, 0.0 ], [ 66.508152, 44.334037, 0.0 ], [ 66.508477, 44.334339, 0.0 ], [ 66.509069, 44.334873, 0.0 ], [ 66.509619, 44.335398, 0.0 ], [ 66.510109, 44.335862, 0.0 ], [ 66.510757, 44.336449, 0.0 ], [ 66.51128, 44.336933, 0.0 ], [ 66.511939, 44.337576, 0.0 ], [ 66.512145, 44.337736, 0.0 ], [ 66.512287, 44.337904, 0.0 ], [ 66.512634, 44.338015, 0.0 ], [ 66.512191, 44.338241, 0.0 ], [ 66.511844, 44.337904, 0.0 ], [ 66.511616, 44.337572, 0.0 ], [ 66.511154, 44.337069, 0.0 ], [ 66.51084, 44.336749, 0.0 ], [ 66.510245, 44.336196, 0.0 ], [ 66.50964, 44.335653, 0.0 ], [ 66.509014, 44.335075, 0.0 ], [ 66.508437, 44.334532, 0.0 ], [ 66.508104, 44.334233, 0.0 ], [ 66.508437, 44.334532, 0.0 ], [ 66.509014, 44.335075, 0.0 ], [ 66.50964, 44.335653, 0.0 ], [ 66.510245, 44.336196, 0.0 ], [ 66.51084, 44.336749, 0.0 ], [ 66.511154, 44.337069, 0.0 ], [ 66.511616, 44.337572, 0.0 ], [ 66.511844, 44.337904, 0.0 ], [ 66.512191, 44.338241, 0.0 ], [ 66.512634, 44.338015, 0.0 ], [ 66.513017, 44.337823, 0.0 ], [ 66.51344, 44.337611, 0.0 ], [ 66.513732, 44.337471, 0.0 ], [ 66.513746, 44.33742, 0.0 ], [ 66.513682, 44.337403, 0.0 ], [ 66.51396, 44.337303, 0.0 ], [ 66.514148, 44.337261, 0.0 ], [ 66.514422, 44.337471, 0.0 ], [ 66.514945, 44.337903, 0.0 ], [ 66.515469, 44.338352, 0.0 ], [ 66.515992, 44.338797, 0.0 ], [ 66.515469, 44.338352, 0.0 ], [ 66.514945, 44.337903, 0.0 ], [ 66.514422, 44.337471, 0.0 ], [ 66.514148, 44.337261, 0.0 ], [ 66.513617, 44.336804, 0.0 ], [ 66.513254, 44.336502, 0.0 ], [ 66.512857, 44.3364, 0.0 ], [ 66.512216, 44.335861, 0.0 ], [ 66.511505, 44.335274, 0.0 ], [ 66.510873, 44.334767, 0.0 ], [ 66.510201, 44.334213, 0.0 ], [ 66.509543, 44.33368, 0.0 ], [ 66.508854, 44.333119, 0.0 ], [ 66.508212, 44.332566, 0.0 ], [ 66.508854, 44.333119, 0.0 ], [ 66.509543, 44.33368, 0.0 ], [ 66.510201, 44.334213, 0.0 ], [ 66.510873, 44.334767, 0.0 ], [ 66.511505, 44.335274, 0.0 ], [ 66.512216, 44.335861, 0.0 ], [ 66.512857, 44.3364, 0.0 ], [ 66.513254, 44.336502, 0.0 ], [ 66.512909, 44.336216, 0.0 ], [ 66.512256, 44.335675, 0.0 ], [ 66.511586, 44.335126, 0.0 ], [ 66.510906, 44.334564, 0.0 ], [ 66.510236, 44.334021, 0.0 ], [ 66.50956, 44.333481, 0.0 ], [ 66.508817, 44.332864, 0.0 ], [ 66.508079, 44.33224, 0.0 ], [ 66.507341, 44.331631, 0.0 ], [ 66.506603, 44.331015, 0.0 ] ] } },
{ "type": "Feature", "properties": { "Name": "Линия 1", "tessellate": 1, "extrude": 0, "visibility": -1 }, "geometry": { "type": "LineString", "coordinates": [ [ 66.503505, 44.344865, 0.0 ], [ 66.503793, 44.34515, 0.0 ], [ 66.504367, 44.345685, 0.0 ], [ 66.504901, 44.346188, 0.0 ], [ 66.505182, 44.346454, 0.0 ], [ 66.505306, 44.34675, 0.0 ], [ 66.504989, 44.346816, 0.0 ], [ 66.504725, 44.346862, 0.0 ], [ 66.504989, 44.346816, 0.0 ], [ 66.505306, 44.34675, 0.0 ], [ 66.505661, 44.346911, 0.0 ], [ 66.505936, 44.347161, 0.0 ], [ 66.506179, 44.34739, 0.0 ], [ 66.50646, 44.347609, 0.0 ], [ 66.506831, 44.347821, 0.0 ], [ 66.506758, 44.348152, 0.0 ], [ 66.507016, 44.348403, 0.0 ], [ 66.507522, 44.348916, 0.0 ], [ 66.508127, 44.34943, 0.0 ], [ 66.508549, 44.349838, 0.0 ], [ 66.509101, 44.350371, 0.0 ], [ 66.508549, 44.349838, 0.0 ], [ 66.508127, 44.34943, 0.0 ], [ 66.507522, 44.348916, 0.0 ], [ 66.507016, 44.348403, 0.0 ], [ 66.506758, 44.348152, 0.0 ], [ 66.506831, 44.347821, 0.0 ], [ 66.507353, 44.347567, 0.0 ], [ 66.50737, 44.347691, 0.0 ], [ 66.507353, 44.347567, 0.0 ], [ 66.507694, 44.347399, 0.0 ], [ 66.507755, 44.347299, 0.0 ], [ 66.508075, 44.347401, 0.0 ], [ 66.508743, 44.348081, 0.0 ], [ 66.509322, 44.34867, 0.0 ], [ 66.509909, 44.349264, 0.0 ], [ 66.510465, 44.349802, 0.0 ], [ 66.510978, 44.350348, 0.0 ], [ 66.511563, 44.350919, 0.0 ], [ 66.510978, 44.350348, 0.0 ], [ 66.510465, 44.349802, 0.0 ], [ 66.509909, 44.349264, 0.0 ], [ 66.509322, 44.34867, 0.0 ], [ 66.508743, 44.348081, 0.0 ], [ 66.508075, 44.347401, 0.0 ], [ 66.508226, 44.347322, 0.0 ], [ 66.508855, 44.347962, 0.0 ], [ 66.509438, 44.34855, 0.0 ], [ 66.510003, 44.349113, 0.0 ], [ 66.510555, 44.349672, 0.0 ], [ 66.511127, 44.35026, 0.0 ], [ 66.511728, 44.350861, 0.0 ], [ 66.512218, 44.351367, 0.0 ], [ 66.512254, 44.351827, 0.0 ], [ 66.512507, 44.352094, 0.0 ], [ 66.513232, 44.352805, 0.0 ], [ 66.513943, 44.353469, 0.0 ], [ 66.513232, 44.352805, 0.0 ], [ 66.512507, 44.352094, 0.0 ], [ 66.512254, 44.351827, 0.0 ], [ 66.512218, 44.351367, 0.0 ], [ 66.511728, 44.350861, 0.0 ], [ 66.511127, 44.35026, 0.0 ], [ 66.510555, 44.349672, 0.0 ], [ 66.510003, 44.349113, 0.0 ], [ 66.509438, 44.34855, 0.0 ], [ 66.508855, 44.347962, 0.0 ], [ 66.508226, 44.347322, 0.0 ], [ 66.508075, 44.347401, 0.0 ], [ 66.507755, 44.347299, 0.0 ], [ 66.507772, 44.347233, 0.0 ], [ 66.508064, 44.347155, 0.0 ], [ 66.50759, 44.346658, 0.0 ], [ 66.507363, 44.346433, 0.0 ], [ 66.507069, 44.346141, 0.0 ], [ 66.506775, 44.345848, 0.0 ], [ 66.506452, 44.345518, 0.0 ], [ 66.506168, 44.345238, 0.0 ], [ 66.505606, 44.344669, 0.0 ], [ 66.505078, 44.344123, 0.0 ], [ 66.504748, 44.343805, 0.0 ], [ 66.504867, 44.343516, 0.0 ], [ 66.505143, 44.343295, 0.0 ], [ 66.505484, 44.343043, 0.0 ], [ 66.505143, 44.343295, 0.0 ], [ 66.505033, 44.342926, 0.0 ], [ 66.504828, 44.342199, 0.0 ], [ 66.5047, 44.341815, 0.0 ], [ 66.504828, 44.342199, 0.0 ], [ 66.505033, 44.342926, 0.0 ], [ 66.505143, 44.343295, 0.0 ], [ 66.504867, 44.343516, 0.0 ], [ 66.504748, 44.343805, 0.0 ], [ 66.505078, 44.344123, 0.0 ], [ 66.505606, 44.344669, 0.0 ], [ 66.506168, 44.345238, 0.0 ], [ 66.506452, 44.345518, 0.0 ], [ 66.506775, 44.345848, 0.0 ], [ 66.507069, 44.346141, 0.0 ], [ 66.507363, 44.346433, 0.0 ], [ 66.50759, 44.346658, 0.0 ], [ 66.508064, 44.347155, 0.0 ], [ 66.507772, 44.347233, 0.0 ], [ 66.507788, 44.34704, 0.0 ], [ 66.507514, 44.34676, 0.0 ], [ 66.506943, 44.346179, 0.0 ], [ 66.506453, 44.345687, 0.0 ], [ 66.505956, 44.345168, 0.0 ], [ 66.505432, 44.344656, 0.0 ], [ 66.50493, 44.344151, 0.0 ], [ 66.504681, 44.34391, 0.0 ], [ 66.504343, 44.343441, 0.0 ], [ 66.504203, 44.343111, 0.0 ], [ 66.504003, 44.342805, 0.0 ], [ 66.503818, 44.342486, 0.0 ], [ 66.503604, 44.34217, 0.0 ], [ 66.503414, 44.3419, 0.0 ], [ 66.503249, 44.3416, 0.0 ], [ 66.502752, 44.34169, 0.0 ], [ 66.502228, 44.341778, 0.0 ], [ 66.501812, 44.341906, 0.0 ], [ 66.501406, 44.34204, 0.0 ], [ 66.500989, 44.342185, 0.0 ], [ 66.500639, 44.342089, 0.0 ], [ 66.500989, 44.342185, 0.0 ], [ 66.50055, 44.342311, 0.0 ], [ 66.500989, 44.342185, 0.0 ], [ 66.500996, 44.342451, 0.0 ], [ 66.501016, 44.342752, 0.0 ], [ 66.501035, 44.343118, 0.0 ], [ 66.501051, 44.343464, 0.0 ], [ 66.500822, 44.343583, 0.0 ] ] } },
{ "type": "Feature", "properties": { "Name": "Линия 1", "tessellate": 1, "extrude": 0, "visibility": -1 }, "geometry": { "type": "LineString", "coordinates": [ [ 66.507042, 44.344036, 0.0 ], [ 66.50762, 44.344647, 0.0 ], [ 66.508246, 44.345293, 0.0 ], [ 66.508869, 44.345937, 0.0 ], [ 66.509497, 44.346588, 0.0 ], [ 66.509626, 44.34649, 0.0 ], [ 66.509669, 44.346443, 0.0 ], [ 66.509721, 44.346446, 0.0 ], [ 66.509827, 44.3465, 0.0 ], [ 66.510492, 44.346236, 0.0 ], [ 66.510683, 44.346347, 0.0 ], [ 66.510972, 44.346696, 0.0 ], [ 66.51144, 44.347291, 0.0 ], [ 66.511906, 44.347851, 0.0 ], [ 66.512156, 44.348126, 0.0 ], [ 66.511906, 44.347851, 0.0 ], [ 66.51144, 44.347291, 0.0 ], [ 66.510972, 44.346696, 0.0 ], [ 66.510683, 44.346347, 0.0 ], [ 66.510492, 44.346236, 0.0 ], [ 66.511119, 44.345941, 0.0 ], [ 66.511081, 44.345891, 0.0 ], [ 66.510668, 44.345557, 0.0 ], [ 66.510352, 44.3452, 0.0 ], [ 66.510307, 44.345316, 0.0 ], [ 66.509945, 44.345036, 0.0 ], [ 66.50963, 44.344791, 0.0 ], [ 66.509295, 44.344521, 0.0 ], [ 66.508969, 44.344266, 0.0 ], [ 66.508704, 44.344069, 0.0 ], [ 66.508004, 44.343527, 0.0 ], [ 66.508704, 44.344069, 0.0 ], [ 66.508969, 44.344266, 0.0 ], [ 66.509295, 44.344521, 0.0 ], [ 66.50963, 44.344791, 0.0 ], [ 66.509945, 44.345036, 0.0 ], [ 66.510307, 44.345316, 0.0 ], [ 66.510352, 44.3452, 0.0 ], [ 66.510668, 44.345557, 0.0 ], [ 66.510893, 44.345784, 0.0 ], [ 66.511081, 44.345891, 0.0 ], [ 66.511495, 44.345737, 0.0 ], [ 66.511877, 44.345575, 0.0 ], [ 66.512286, 44.345427, 0.0 ], [ 66.512741, 44.345209, 0.0 ], [ 66.513022, 44.345085, 0.0 ], [ 66.513199, 44.345218, 0.0 ], [ 66.513022, 44.345085, 0.0 ], [ 66.512741, 44.345209, 0.0 ], [ 66.512589, 44.344808, 0.0 ], [ 66.512436, 44.344509, 0.0 ], [ 66.51222, 44.344165, 0.0 ], [ 66.512023, 44.343835, 0.0 ], [ 66.511819, 44.343527, 0.0 ] ] } },
{ "type": "Feature", "properties": { "Name": "Линия 1", "tessellate": 1, "extrude": 0, "visibility": -1 }, "geometry": { "type": "LineString", "coordinates": [ [ 66.525331, 44.348897, 0.0 ], [ 66.525322, 44.348571, 0.0 ], [ 66.525347, 44.348068, 0.0 ], [ 66.525098, 44.347632, 0.0 ], [ 66.524878, 44.347262, 0.0 ], [ 66.524637, 44.346873, 0.0 ], [ 66.524451, 44.346563, 0.0 ], [ 66.524281, 44.346248, 0.0 ], [ 66.524109, 44.345964, 0.0 ], [ 66.523918, 44.345637, 0.0 ], [ 66.523692, 44.345298, 0.0 ], [ 66.523421, 44.344951, 0.0 ], [ 66.523113, 44.344561, 0.0 ], [ 66.52281, 44.344224, 0.0 ], [ 66.522574, 44.343936, 0.0 ], [ 66.522283, 44.343583, 0.0 ], [ 66.522022, 44.343273, 0.0 ], [ 66.521778, 44.342981, 0.0 ], [ 66.521537, 44.342727, 0.0 ], [ 66.521255, 44.342394, 0.0 ], [ 66.520926, 44.341985, 0.0 ], [ 66.52129, 44.341814, 0.0 ], [ 66.521782, 44.341608, 0.0 ], [ 66.522203, 44.341438, 0.0 ], [ 66.522557, 44.341251, 0.0 ], [ 66.522879, 44.341119, 0.0 ], [ 66.522557, 44.341251, 0.0 ], [ 66.522203, 44.341438, 0.0 ], [ 66.521782, 44.341608, 0.0 ], [ 66.52129, 44.341814, 0.0 ], [ 66.520926, 44.341985, 0.0 ], [ 66.520207, 44.342291, 0.0 ], [ 66.519748, 44.342512, 0.0 ], [ 66.519295, 44.342709, 0.0 ], [ 66.519229, 44.342842, 0.0 ], [ 66.519333, 44.342823, 0.0 ], [ 66.519361, 44.343228, 0.0 ], [ 66.519394, 44.343615, 0.0 ], [ 66.519697, 44.343895, 0.0 ], [ 66.52005, 44.344245, 0.0 ], [ 66.520389, 44.34458, 0.0 ], [ 66.519697, 44.343895, 0.0 ], [ 66.519394, 44.343615, 0.0 ], [ 66.519361, 44.343228, 0.0 ], [ 66.519333, 44.342823, 0.0 ], [ 66.519647, 44.343132, 0.0 ], [ 66.519983, 44.343462, 0.0 ], [ 66.520301, 44.343783, 0.0 ], [ 66.520621, 44.34411, 0.0 ], [ 66.520963, 44.344453, 0.0 ], [ 66.521287, 44.344781, 0.0 ], [ 66.521572, 44.345071, 0.0 ], [ 66.521867, 44.34535, 0.0 ], [ 66.521504, 44.345491, 0.0 ], [ 66.521106, 44.345644, 0.0 ], [ 66.521504, 44.345491, 0.0 ], [ 66.521867, 44.34535, 0.0 ], [ 66.52215, 44.345639, 0.0 ], [ 66.522517, 44.345622, 0.0 ], [ 66.52215, 44.345639, 0.0 ], [ 66.521867, 44.34535, 0.0 ], [ 66.521287, 44.344781, 0.0 ], [ 66.520963, 44.344453, 0.0 ], [ 66.520621, 44.34411, 0.0 ], [ 66.520301, 44.343783, 0.0 ], [ 66.519983, 44.343462, 0.0 ], [ 66.519647, 44.343132, 0.0 ], [ 66.519333, 44.342823, 0.0 ], [ 66.519229, 44.342842, 0.0 ], [ 66.519112, 44.342784, 0.0 ], [ 66.518947, 44.342834, 0.0 ], [ 66.518559, 44.343003, 0.0 ], [ 66.518144, 44.343181, 0.0 ], [ 66.517694, 44.343368, 0.0 ], [ 66.517123, 44.343609, 0.0 ], [ 66.516563, 44.343846, 0.0 ], [ 66.516168, 44.344019, 0.0 ], [ 66.515729, 44.344197, 0.0 ], [ 66.516168, 44.344019, 0.0 ], [ 66.516563, 44.343846, 0.0 ], [ 66.516942, 44.344152, 0.0 ], [ 66.517504, 44.344547, 0.0 ], [ 66.516946, 44.34488, 0.0 ], [ 66.516896, 44.345221, 0.0 ], [ 66.516602, 44.345542, 0.0 ], [ 66.516896, 44.345221, 0.0 ], [ 66.516946, 44.34488, 0.0 ], [ 66.517504, 44.344547, 0.0 ], [ 66.51815, 44.344771, 0.0 ], [ 66.518402, 44.345015, 0.0 ], [ 66.518699, 44.345294, 0.0 ], [ 66.518986, 44.345582, 0.0 ], [ 66.519228, 44.345829, 0.0 ], [ 66.519571, 44.346156, 0.0 ], [ 66.519836, 44.346442, 0.0 ], [ 66.520092, 44.3467, 0.0 ], [ 66.520356, 44.346968, 0.0 ], [ 66.52066, 44.347278, 0.0 ], [ 66.520983, 44.347606, 0.0 ] ] } },
{ "type": "Feature", "properties": { "Name": "Линия 1", "tessellate": 1, "extrude": 0, "visibility": -1 }, "geometry": { "type": "LineString", "coordinates": [ [ 66.518415, 44.335624, 0.0 ], [ 66.518475, 44.335631, 0.0 ], [ 66.518912, 44.335775, 0.0 ], [ 66.519301, 44.335908, 0.0 ], [ 66.519792, 44.336067, 0.0 ], [ 66.520282, 44.336074, 0.0 ], [ 66.520923, 44.336127, 0.0 ], [ 66.521386, 44.33614, 0.0 ], [ 66.521673, 44.335998, 0.0 ], [ 66.521976, 44.335885, 0.0 ], [ 66.522154, 44.336002, 0.0 ], [ 66.521976, 44.335885, 0.0 ], [ 66.521673, 44.335998, 0.0 ], [ 66.521386, 44.33614, 0.0 ], [ 66.521692, 44.336425, 0.0 ], [ 66.521972, 44.336707, 0.0 ], [ 66.522252, 44.337005, 0.0 ], [ 66.522549, 44.337304, 0.0 ], [ 66.522819, 44.337588, 0.0 ], [ 66.523027, 44.337795, 0.0 ], [ 66.523095, 44.337811, 0.0 ], [ 66.523572, 44.337559, 0.0 ], [ 66.523948, 44.337362, 0.0 ], [ 66.524163, 44.337264, 0.0 ], [ 66.524349, 44.33715, 0.0 ], [ 66.524408, 44.336979, 0.0 ], [ 66.524129, 44.33668, 0.0 ], [ 66.523859, 44.336406, 0.0 ], [ 66.523636, 44.336166, 0.0 ], [ 66.523999, 44.335965, 0.0 ], [ 66.524351, 44.335729, 0.0 ], [ 66.524554, 44.335613, 0.0 ], [ 66.52496, 44.335915, 0.0 ], [ 66.524554, 44.335613, 0.0 ], [ 66.524228, 44.335348, 0.0 ], [ 66.523834, 44.335074, 0.0 ], [ 66.523484, 44.334823, 0.0 ], [ 66.523128, 44.334572, 0.0 ], [ 66.52265, 44.334117, 0.0 ], [ 66.522362, 44.333915, 0.0 ], [ 66.522191, 44.333701, 0.0 ], [ 66.521772, 44.333827, 0.0 ], [ 66.521889, 44.333581, 0.0 ], [ 66.522027, 44.333225, 0.0 ], [ 66.521889, 44.333581, 0.0 ], [ 66.52275, 44.333375, 0.0 ], [ 66.523219, 44.333371, 0.0 ], [ 66.523634, 44.333158, 0.0 ], [ 66.523862, 44.333035, 0.0 ], [ 66.523634, 44.333158, 0.0 ], [ 66.523219, 44.333371, 0.0 ], [ 66.523087, 44.333058, 0.0 ], [ 66.523002, 44.332767, 0.0 ], [ 66.523087, 44.333058, 0.0 ], [ 66.523219, 44.333371, 0.0 ], [ 66.52275, 44.333375, 0.0 ], [ 66.521889, 44.333581, 0.0 ], [ 66.521772, 44.333827, 0.0 ], [ 66.52119, 44.333807, 0.0 ], [ 66.520796, 44.333808, 0.0 ], [ 66.520438, 44.333967, 0.0 ], [ 66.520169, 44.334113, 0.0 ], [ 66.519887, 44.334262, 0.0 ], [ 66.520169, 44.334113, 0.0 ], [ 66.520438, 44.333967, 0.0 ], [ 66.520796, 44.333808, 0.0 ], [ 66.52119, 44.333807, 0.0 ], [ 66.521772, 44.333827, 0.0 ], [ 66.522021, 44.334177, 0.0 ], [ 66.522267, 44.334541, 0.0 ], [ 66.522447, 44.334875, 0.0 ], [ 66.522646, 44.335206, 0.0 ], [ 66.523001, 44.335527, 0.0 ], [ 66.522646, 44.335206, 0.0 ], [ 66.522298, 44.335388, 0.0 ], [ 66.522646, 44.335206, 0.0 ], [ 66.523001, 44.335527, 0.0 ], [ 66.523364, 44.335868, 0.0 ], [ 66.523636, 44.336166, 0.0 ], [ 66.523364, 44.335868, 0.0 ], [ 66.523001, 44.335527, 0.0 ], [ 66.522646, 44.335206, 0.0 ], [ 66.522298, 44.335388, 0.0 ], [ 66.521952, 44.335582, 0.0 ], [ 66.521562, 44.335808, 0.0 ], [ 66.521386, 44.33614, 0.0 ] ] } },
{ "type": "Feature", "properties": { "Name": "Линия 2", "tessellate": 1, "extrude": 0, "visibility": -1 }, "geometry": { "type": "LineString", "coordinates": [ [ 66.514168, 44.338793, 0.0 ], [ 66.51419, 44.338866, 0.0 ], [ 66.513937, 44.339033, 0.0 ], [ 66.513879, 44.339418, 0.0 ], [ 66.513544, 44.33957, 0.0 ], [ 66.513171, 44.339676, 0.0 ], [ 66.512796, 44.339768, 0.0 ], [ 66.51244, 44.339865, 0.0 ], [ 66.512145, 44.339486, 0.0 ], [ 66.51244, 44.339865, 0.0 ], [ 66.512762, 44.340236, 0.0 ], [ 66.512899, 44.340415, 0.0 ], [ 66.51304, 44.340613, 0.0 ], [ 66.51316, 44.340906, 0.0 ], [ 66.513414, 44.341142, 0.0 ], [ 66.513634, 44.341442, 0.0 ], [ 66.513871, 44.341746, 0.0 ], [ 66.514101, 44.342027, 0.0 ], [ 66.514331, 44.342323, 0.0 ], [ 66.514534, 44.34259, 0.0 ], [ 66.514331, 44.342323, 0.0 ], [ 66.514704, 44.342185, 0.0 ], [ 66.515096, 44.342013, 0.0 ], [ 66.514704, 44.342185, 0.0 ], [ 66.514331, 44.342323, 0.0 ], [ 66.514534, 44.34259, 0.0 ], [ 66.514848, 44.342711, 0.0 ], [ 66.514791, 44.342924, 0.0 ], [ 66.514848, 44.342711, 0.0 ], [ 66.515226, 44.342542, 0.0 ], [ 66.515557, 44.342449, 0.0 ], [ 66.515722, 44.342664, 0.0 ], [ 66.515557, 44.342449, 0.0 ], [ 66.516125, 44.342207, 0.0 ], [ 66.516677, 44.342246, 0.0 ] ] } },
{ "type": "Feature", "properties": { "Name": "ВЛ 0,4 кВ от КТПБ-10/0,4 кВ №489", "description": "https://www.google.com/maps/d/u/0/viewer?hl=ru&mid=1NZv8tC4Vxc3DvNdk9IvL6ABhtI7L7t0&ll=44.16615651990699%2C66.729531&z=18", "tessellate": 1, "extrude": 0, "visibility": -1 }, "geometry": { "type": "LineString", "coordinates": [ [ 66.730763, 44.165875, 0.0 ], [ 66.730698, 44.16594, 0.0 ], [ 66.730638, 44.166106, 0.0 ], [ 66.730605, 44.166232, 0.0 ], [ 66.730324, 44.166182, 0.0 ], [ 66.730047, 44.166134, 0.0 ], [ 66.730014, 44.166295, 0.0 ], [ 66.729979, 44.166485, 0.0 ], [ 66.730014, 44.166295, 0.0 ], [ 66.730047, 44.166134, 0.0 ], [ 66.730324, 44.166182, 0.0 ], [ 66.730605, 44.166232, 0.0 ], [ 66.730677, 44.166457, 0.0 ], [ 66.730702, 44.16673, 0.0 ], [ 66.730733, 44.166902, 0.0 ], [ 66.730675, 44.167183, 0.0 ], [ 66.730614, 44.167393, 0.0 ], [ 66.730504, 44.167629, 0.0 ], [ 66.730159, 44.167689, 0.0 ], [ 66.729931, 44.16746, 0.0 ], [ 66.730159, 44.167689, 0.0 ], [ 66.730504, 44.167629, 0.0 ], [ 66.730614, 44.167393, 0.0 ], [ 66.730675, 44.167183, 0.0 ], [ 66.730733, 44.166902, 0.0 ], [ 66.730702, 44.16673, 0.0 ], [ 66.730677, 44.166457, 0.0 ], [ 66.730605, 44.166232, 0.0 ], [ 66.730966, 44.166329, 0.0 ], [ 66.731235, 44.166381, 0.0 ], [ 66.731737, 44.166503, 0.0 ], [ 66.731693, 44.166727, 0.0 ], [ 66.731606, 44.167022, 0.0 ], [ 66.731693, 44.166727, 0.0 ], [ 66.731737, 44.166503, 0.0 ], [ 66.731235, 44.166381, 0.0 ], [ 66.730966, 44.166329, 0.0 ], [ 66.730605, 44.166232, 0.0 ], [ 66.730638, 44.166106, 0.0 ], [ 66.730332, 44.16601, 0.0 ], [ 66.730638, 44.166106, 0.0 ], [ 66.730605, 44.166232, 0.0 ], [ 66.730966, 44.166329, 0.0 ], [ 66.731235, 44.166381, 0.0 ], [ 66.731737, 44.166503, 0.0 ], [ 66.731819, 44.166322, 0.0 ], [ 66.731907, 44.166021, 0.0 ], [ 66.732019, 44.165636, 0.0 ], [ 66.731907, 44.166021, 0.0 ], [ 66.731819, 44.166322, 0.0 ], [ 66.731737, 44.166503, 0.0 ], [ 66.73149, 44.166441, 0.0 ], [ 66.731235, 44.166381, 0.0 ], [ 66.730966, 44.166329, 0.0 ], [ 66.730605, 44.166232, 0.0 ], [ 66.730638, 44.166106, 0.0 ], [ 66.730332, 44.16601, 0.0 ], [ 66.730072, 44.165949, 0.0 ], [ 66.729604, 44.165852, 0.0 ], [ 66.729499, 44.165705, 0.0 ], [ 66.729125, 44.165643, 0.0 ], [ 66.728752, 44.165567, 0.0 ], [ 66.728462, 44.165501, 0.0 ], [ 66.728124, 44.165427, 0.0 ], [ 66.728077, 44.165525, 0.0 ], [ 66.728024, 44.165715, 0.0 ], [ 66.728011, 44.165824, 0.0 ], [ 66.728135, 44.165842, 0.0 ], [ 66.728011, 44.165824, 0.0 ], [ 66.728024, 44.165715, 0.0 ], [ 66.728077, 44.165525, 0.0 ], [ 66.728124, 44.165427, 0.0 ], [ 66.727612, 44.165285, 0.0 ], [ 66.727245, 44.165133, 0.0 ], [ 66.727043, 44.165044, 0.0 ], [ 66.727245, 44.165133, 0.0 ], [ 66.727612, 44.165285, 0.0 ], [ 66.728124, 44.165427, 0.0 ], [ 66.728462, 44.165501, 0.0 ], [ 66.728752, 44.165567, 0.0 ], [ 66.729125, 44.165643, 0.0 ], [ 66.729499, 44.165705, 0.0 ], [ 66.729716, 44.165639, 0.0 ], [ 66.729849, 44.165318, 0.0 ], [ 66.729949, 44.165046, 0.0 ], [ 66.730041, 44.164789, 0.0 ], [ 66.730108, 44.164624, 0.0 ] ] } },
{ "type": "Feature", "properties": { "Name": "ВЛ 0,4 кВ от КТПН-10/0,4 кВ №113", "description": "Запитано от: КТПН-10/0,4 кВ №113<br><br>Гео-схема:<br>https://www.google.com/maps/d/viewer?hl=ru&mid=1FKo-ulhFAxqA6lQlGtMeEMcG0E7bCAI&ll=44.16919801612057%2C66.71613300000003&z=18<br><br>По опорную схема:<br>https://docs.google.com/drawings/d/1PyvdMZT1Tr4OiSKoxPROlVIBCpdeP7dp6w6no1Wqmzc/edit?usp=sharing<br><br>Таблица данных по опорам:<br>https://docs.google.com/spreadsheets/d/1roTjYnERUEPvwfadRqAPdmBBHrHU-5KXc7MSCqP9Etg/edit?usp=sharing", "tessellate": 1, "extrude": 0, "visibility": -1 }, "geometry": { "type": "LineString", "coordinates": [ [ 66.717061, 44.16804, 0.0 ], [ 66.717081, 44.168059, 0.0 ], [ 66.717227, 44.168302, 0.0 ], [ 66.71737, 44.168543, 0.0 ], [ 66.717444, 44.168658, 0.0 ], [ 66.7177, 44.168589, 0.0 ], [ 66.717954, 44.168519, 0.0 ], [ 66.719397, 44.16812, 0.0 ], [ 66.717954, 44.168519, 0.0 ], [ 66.718057, 44.168393, 0.0 ], [ 66.719871, 44.167893, 0.0 ], [ 66.718057, 44.168393, 0.0 ], [ 66.717954, 44.168519, 0.0 ], [ 66.717444, 44.168658, 0.0 ], [ 66.71482, 44.169324, 0.0 ], [ 66.712395, 44.169975, 0.0 ], [ 66.712696, 44.170577, 0.0 ], [ 66.715016, 44.169968, 0.0 ], [ 66.717606, 44.169291, 0.0 ], [ 66.719, 44.168941, 0.0 ] ] } },
{ "type": "Feature", "properties": { "Name": "ВЛ 0,4 кВ от КТПБ 10/0,4 кВ №371", "description": "фидер №1<br>Запитано от: КТПБ 10/0,4 кВ №371<br><br>Гео-схема:<br>https://www.google.com/maps/d/viewer?hl=ru&mid=1OQxpoWyJZ7rfBiKzvFNnqWZ-z3u6Xco&ll=44.17146789927494%2C66.71402629999999&z=17<br><br>По опорная схема:<br>https://docs.google.com/drawings/d/1PiYscOhJuK36S2MsGv-rpQ0Nnn0qSMDqO-omXM6jNk0/edit?usp=sharing<br><br>Таблица данных по опорам:<br>https://docs.google.com/spreadsheets/d/1iWtd2GoU0b-dkd669MCGUTbqbp0l_H7GdWPhcQjSwM8/edit?usp=sharing", "tessellate": 1, "extrude": 0, "visibility": -1 }, "geometry": { "type": "LineString", "coordinates": [ [ 66.718928, 44.169057, 0.0 ], [ 66.718563, 44.169146, 0.0 ], [ 66.718349, 44.169199, 0.0 ], [ 66.717976, 44.169295, 0.0 ], [ 66.717647, 44.169371, 0.0 ], [ 66.717309, 44.169456, 0.0 ], [ 66.716997, 44.169536, 0.0 ], [ 66.716697, 44.169611, 0.0 ], [ 66.71637, 44.169695, 0.0 ], [ 66.71596, 44.169812, 0.0 ], [ 66.715658, 44.169905, 0.0 ], [ 66.715419, 44.169963, 0.0 ], [ 66.715196, 44.170032, 0.0 ], [ 66.71489, 44.17009, 0.0 ], [ 66.714582, 44.170182, 0.0 ], [ 66.714263, 44.170249, 0.0 ], [ 66.713972, 44.170326, 0.0 ], [ 66.713684, 44.170413, 0.0 ], [ 66.713361, 44.170513, 0.0 ], [ 66.713027, 44.170591, 0.0 ], [ 66.712749, 44.170662, 0.0 ], [ 66.712769, 44.170682, 0.0 ], [ 66.712749, 44.170662, 0.0 ], [ 66.712702, 44.170573, 0.0 ], [ 66.712434, 44.17065, 0.0 ], [ 66.712169, 44.170711, 0.0 ], [ 66.711865, 44.170792, 0.0 ], [ 66.711768, 44.170909, 0.0 ], [ 66.712092, 44.17082, 0.0 ], [ 66.712346, 44.170767, 0.0 ] ] } },
{ "type": "Feature", "properties": { "Name": "ВЛ 0,4 кВ от КТПБ 10/0,4 кВ №371", "description": "фидер №2<br>Запитано от: КТПБ 10/0,4 кВ №371<br><br>Гео-схема:<br>https://www.google.com/maps/d/viewer?hl=ru&mid=1OQxpoWyJZ7rfBiKzvFNnqWZ-z3u6Xco&ll=44.17146789927494%2C66.71402629999999&z=17<br><br>По опорная схема:<br>https://docs.google.com/drawings/d/1PiYscOhJuK36S2MsGv-rpQ0Nnn0qSMDqO-omXM6jNk0/edit?usp=sharing<br><br>Таблица данных по опорам:<br>https://docs.google.com/spreadsheets/d/1iWtd2GoU0b-dkd669MCGUTbqbp0l_H7GdWPhcQjSwM8/edit?usp=sharing", "tessellate": 1, "extrude": 0, "visibility": -1 }, "geometry": { "type": "LineString", "coordinates": [ [ 66.717884, 44.170861, 0.0 ], [ 66.717584, 44.170927, 0.0 ], [ 66.717377, 44.170993, 0.0 ], [ 66.717005, 44.171078, 0.0 ], [ 66.716707, 44.171151, 0.0 ], [ 66.716442, 44.171224, 0.0 ], [ 66.716154, 44.171302, 0.0 ], [ 66.715889, 44.171369, 0.0 ], [ 66.715646, 44.171426, 0.0 ], [ 66.715388, 44.171504, 0.0 ], [ 66.715113, 44.171579, 0.0 ], [ 66.714888, 44.171653, 0.0 ], [ 66.714582, 44.171722, 0.0 ], [ 66.714255, 44.171802, 0.0 ], [ 66.713943, 44.171893, 0.0 ], [ 66.713681, 44.171978, 0.0 ], [ 66.713424, 44.172055, 0.0 ], [ 66.713365, 44.171948, 0.0 ], [ 66.713651, 44.171862, 0.0 ], [ 66.713989, 44.171777, 0.0 ], [ 66.714264, 44.171696, 0.0 ], [ 66.714533, 44.171628, 0.0 ], [ 66.714812, 44.171558, 0.0 ], [ 66.715101, 44.171474, 0.0 ], [ 66.715319, 44.17143, 0.0 ], [ 66.71557, 44.171355, 0.0 ], [ 66.715787, 44.171301, 0.0 ], [ 66.716065, 44.171225, 0.0 ], [ 66.716369, 44.171151, 0.0 ], [ 66.716659, 44.171071, 0.0 ], [ 66.71696, 44.170987, 0.0 ], [ 66.717219, 44.170935, 0.0 ], [ 66.717513, 44.170861, 0.0 ], [ 66.717825, 44.170774, 0.0 ], [ 66.71808, 44.170708, 0.0 ], [ 66.718301, 44.170647, 0.0 ], [ 66.71808, 44.170708, 0.0 ], [ 66.717825, 44.170774, 0.0 ], [ 66.717513, 44.170861, 0.0 ], [ 66.717219, 44.170935, 0.0 ], [ 66.71696, 44.170987, 0.0 ], [ 66.716659, 44.171071, 0.0 ], [ 66.716369, 44.171151, 0.0 ], [ 66.716065, 44.171225, 0.0 ], [ 66.715787, 44.171301, 0.0 ], [ 66.71557, 44.171355, 0.0 ], [ 66.715319, 44.17143, 0.0 ], [ 66.715101, 44.171474, 0.0 ], [ 66.714812, 44.171558, 0.0 ], [ 66.714533, 44.171628, 0.0 ], [ 66.714264, 44.171696, 0.0 ], [ 66.713989, 44.171777, 0.0 ], [ 66.713651, 44.171862, 0.0 ], [ 66.713365, 44.171948, 0.0 ], [ 66.713263, 44.171753, 0.0 ], [ 66.713151, 44.171532, 0.0 ], [ 66.713076, 44.171359, 0.0 ], [ 66.713334, 44.17128, 0.0 ], [ 66.713576, 44.171219, 0.0 ], [ 66.71387, 44.171133, 0.0 ], [ 66.714203, 44.171052, 0.0 ], [ 66.714436, 44.170986, 0.0 ], [ 66.714735, 44.170911, 0.0 ], [ 66.714994, 44.170853, 0.0 ], [ 66.715278, 44.170775, 0.0 ], [ 66.715547, 44.170704, 0.0 ], [ 66.715706, 44.170669, 0.0 ], [ 66.715819, 44.170628, 0.0 ], [ 66.716069, 44.170566, 0.0 ], [ 66.716387, 44.17049, 0.0 ], [ 66.716731, 44.170397, 0.0 ], [ 66.717035, 44.170317, 0.0 ], [ 66.717366, 44.17023, 0.0 ], [ 66.717621, 44.170164, 0.0 ], [ 66.717906, 44.170083, 0.0 ], [ 66.718149, 44.170007, 0.0 ], [ 66.718458, 44.169931, 0.0 ], [ 66.718753, 44.169855, 0.0 ], [ 66.718458, 44.169931, 0.0 ], [ 66.718149, 44.170007, 0.0 ], [ 66.717906, 44.170083, 0.0 ], [ 66.717621, 44.170164, 0.0 ], [ 66.717366, 44.17023, 0.0 ], [ 66.717035, 44.170317, 0.0 ], [ 66.716731, 44.170397, 0.0 ], [ 66.716387, 44.17049, 0.0 ], [ 66.716069, 44.170566, 0.0 ], [ 66.715819, 44.170628, 0.0 ], [ 66.715706, 44.170669, 0.0 ], [ 66.715547, 44.170704, 0.0 ], [ 66.715278, 44.170775, 0.0 ], [ 66.714994, 44.170853, 0.0 ], [ 66.714735, 44.170911, 0.0 ], [ 66.714436, 44.170986, 0.0 ], [ 66.714203, 44.171052, 0.0 ], [ 66.71387, 44.171133, 0.0 ], [ 66.713576, 44.171219, 0.0 ], [ 66.713334, 44.17128, 0.0 ], [ 66.713076, 44.171359, 0.0 ], [ 66.713023, 44.171259, 0.0 ], [ 66.713277, 44.171193, 0.0 ], [ 66.713023, 44.171259, 0.0 ], [ 66.712931, 44.17108, 0.0 ], [ 66.712854, 44.170906, 0.0 ], [ 66.712807, 44.170806, 0.0 ], [ 66.712792, 44.170728, 0.0 ], [ 66.712807, 44.170806, 0.0 ], [ 66.712854, 44.170906, 0.0 ], [ 66.712931, 44.17108, 0.0 ], [ 66.713023, 44.171259, 0.0 ], [ 66.713277, 44.171193, 0.0 ], [ 66.713559, 44.171121, 0.0 ], [ 66.713872, 44.171033, 0.0 ], [ 66.714246, 44.170929, 0.0 ], [ 66.714527, 44.170852, 0.0 ], [ 66.715014, 44.17075, 0.0 ], [ 66.71526, 44.170677, 0.0 ], [ 66.715515, 44.170616, 0.0 ], [ 66.715787, 44.170543, 0.0 ], [ 66.716047, 44.170479, 0.0 ], [ 66.716345, 44.170395, 0.0 ], [ 66.716645, 44.170313, 0.0 ], [ 66.716944, 44.17024, 0.0 ], [ 66.717229, 44.170168, 0.0 ], [ 66.71751, 44.170095, 0.0 ], [ 66.717786, 44.170033, 0.0 ], [ 66.718067, 44.169949, 0.0 ], [ 66.718348, 44.169875, 0.0 ], [ 66.718635, 44.169796, 0.0 ], [ 66.718886, 44.169736, 0.0 ] ] } },
{ "type": "Feature", "properties": { "Name": "ВЛ 0,4 кВ от КТПБ 10/0,4 кВ №371", "description": "фидер №3<br>Запитано от: КТПБ 10/0,4 кВ №371<br><br>Гео-схема:<br>https://www.google.com/maps/d/viewer?hl=ru&mid=1OQxpoWyJZ7rfBiKzvFNnqWZ-z3u6Xco&ll=44.17146789927494%2C66.71402629999999&z=17<br><br>По опорная схема:<br>https://docs.google.com/drawings/d/1PiYscOhJuK36S2MsGv-rpQ0Nnn0qSMDqO-omXM6jNk0/edit?usp=sharing<br><br>Таблица данных по опорам:<br>https://docs.google.com/spreadsheets/d/1iWtd2GoU0b-dkd669MCGUTbqbp0l_H7GdWPhcQjSwM8/edit?usp=sharing", "tessellate": 1, "extrude": 0, "visibility": -1 }, "geometry": { "type": "LineString", "coordinates": [ [ 66.712792, 44.170728, 0.0 ], [ 66.712692, 44.170783, 0.0 ], [ 66.712919, 44.171271, 0.0 ], [ 66.711868, 44.171579, 0.0 ], [ 66.712919, 44.171271, 0.0 ], [ 66.712972, 44.171387, 0.0 ], [ 66.711919, 44.171672, 0.0 ], [ 66.712972, 44.171387, 0.0 ], [ 66.713262, 44.17197, 0.0 ], [ 66.711631, 44.172376, 0.0 ], [ 66.713262, 44.17197, 0.0 ], [ 66.713319, 44.172073, 0.0 ], [ 66.710689, 44.172747, 0.0 ], [ 66.713319, 44.172073, 0.0 ], [ 66.713585, 44.172625, 0.0 ], [ 66.711446, 44.173199, 0.0 ], [ 66.713585, 44.172625, 0.0 ], [ 66.713631, 44.172728, 0.0 ], [ 66.710636, 44.173514, 0.0 ], [ 66.709125, 44.173879, 0.0 ], [ 66.710636, 44.173514, 0.0 ], [ 66.713631, 44.172728, 0.0 ], [ 66.713973, 44.173378, 0.0 ], [ 66.713631, 44.172728, 0.0 ], [ 66.716211, 44.172068, 0.0 ], [ 66.716383, 44.172034, 0.0 ], [ 66.716786, 44.172913, 0.0 ], [ 66.7169025, 44.1727671, 0.0 ], [ 66.7175769, 44.1724288, 0.0 ], [ 66.7169025, 44.1727671, 0.0 ], [ 66.716786, 44.172913, 0.0 ], [ 66.716383, 44.172034, 0.0 ], [ 66.717872, 44.171635, 0.0 ], [ 66.716383, 44.172034, 0.0 ], [ 66.716211, 44.172068, 0.0 ], [ 66.713631, 44.172728, 0.0 ], [ 66.713585, 44.172625, 0.0 ], [ 66.714514, 44.172386, 0.0 ], [ 66.716181, 44.171985, 0.0 ], [ 66.718132, 44.171467, 0.0 ] ] } },
{ "type": "Feature", "properties": { "Name": "ВЛ-0,4 кВ от ТП-10/0,4 кВ №286\n", "description": "Фидер №3<br>Запитано от: ТП-10/0,4 кВ №286<br><br>Гео-схема:<br>https://www.google.com/maps/d/edit?hl=ru&mid=1pg09iu5_y3ayN6VhT9dyX8y28_8cax8&ll=44.16348753903636%2C66.71762854387701&z=17<br><br>По опорная схема:<br>https://docs.google.com/drawings/d/1ydgCmzv9iOKhz-Azpv_rN0QJN_yzcv5_KdlecSV3MmY/edit<br><br>Таблица данный по опорам:<br>https://docs.google.com/spreadsheets/d/1c9dYZvEYm9fYA7IXm7PfO1AiwAVE_6xZVnN5GfeVU_k/edit?gid=0#gid=0", "tessellate": 1, "extrude": 0, "visibility": -1 }, "geometry": { "type": "LineString", "coordinates": [ [ 66.719121, 44.165844, 0.0 ], [ 66.71678, 44.164694, 0.0 ], [ 66.713851, 44.163209, 0.0 ], [ 66.71678, 44.164694, 0.0 ], [ 66.716874, 44.164607, 0.0 ], [ 66.718601, 44.165479, 0.0 ], [ 66.716874, 44.164607, 0.0 ], [ 66.714159, 44.163249, 0.0 ], [ 66.714902, 44.162766, 0.0 ], [ 66.714159, 44.163249, 0.0 ], [ 66.713655, 44.162984, 0.0 ], [ 66.713235, 44.162663, 0.0 ], [ 66.71346, 44.162074, 0.0 ], [ 66.714534, 44.161825, 0.0 ], [ 66.714939, 44.161753, 0.0 ], [ 66.714534, 44.161825, 0.0 ], [ 66.71346, 44.162074, 0.0 ], [ 66.713235, 44.162663, 0.0 ], [ 66.713655, 44.162984, 0.0 ], [ 66.714159, 44.163249, 0.0 ], [ 66.716874, 44.164607, 0.0 ], [ 66.717332, 44.164079, 0.0 ], [ 66.718355, 44.164536, 0.0 ], [ 66.717485, 44.16415, 0.0 ], [ 66.717576, 44.164096, 0.0 ], [ 66.718426, 44.164453, 0.0 ], [ 66.717576, 44.164096, 0.0 ], [ 66.717485, 44.16415, 0.0 ], [ 66.717332, 44.164079, 0.0 ], [ 66.717075, 44.163951, 0.0 ], [ 66.716993, 44.163995, 0.0 ] ] } },
{ "type": "Feature", "properties": { "Name": "ВЛ-0,4 кВ от ТП-10/0,4 кВ №286\n", "description": "Фидер №2<br>Запитано от: ТП-10/0,4 кВ №286<br><br>Гео-схема:<br>https://www.google.com/maps/d/edit?hl=ru&mid=1pg09iu5_y3ayN6VhT9dyX8y28_8cax8&ll=44.16348753903636%2C66.71762854387701&z=17<br><br>По опорная схема:<br>https://docs.google.com/drawings/d/1ydgCmzv9iOKhz-Azpv_rN0QJN_yzcv5_KdlecSV3MmY/edit<br><br>Таблица данный по опорам:<br>https://docs.google.com/spreadsheets/d/1c9dYZvEYm9fYA7IXm7PfO1AiwAVE_6xZVnN5GfeVU_k/edit?gid=0#gid=0", "tessellate": 1, "extrude": 0, "visibility": -1 }, "geometry": { "type": "LineString", "coordinates": [ [ 66.716993, 44.163995, 0.0 ], [ 66.717075, 44.163951, 0.0 ], [ 66.717163, 44.163884, 0.0 ], [ 66.715703, 44.163184, 0.0 ], [ 66.717163, 44.163884, 0.0 ], [ 66.717415, 44.164014, 0.0 ], [ 66.717744, 44.16366, 0.0 ], [ 66.717874, 44.163489, 0.0 ], [ 66.718045, 44.163502, 0.0 ], [ 66.719344, 44.164121, 0.0 ], [ 66.720259, 44.164549, 0.0 ], [ 66.719344, 44.164121, 0.0 ], [ 66.718045, 44.163502, 0.0 ], [ 66.717874, 44.163489, 0.0 ], [ 66.717531, 44.163287, 0.0 ], [ 66.717333, 44.163192, 0.0 ], [ 66.717477, 44.163076, 0.0 ], [ 66.716939, 44.162881, 0.0 ], [ 66.717477, 44.163076, 0.0 ], [ 66.717756, 44.163091, 0.0 ], [ 66.718141, 44.163044, 0.0 ], [ 66.719346, 44.162984, 0.0 ], [ 66.71961, 44.162959, 0.0 ], [ 66.719846, 44.162966, 0.0 ], [ 66.720164, 44.16295, 0.0 ], [ 66.720992, 44.163208, 0.0 ] ] } },
{ "type": "Feature", "properties": { "Name": "ВЛ-0,4 кВ от ТП-10/0,4 кВ №286\n", "description": "Фидер №1<br>Запитано от: ТП-10/0,4 кВ №286<br><br>Гео-схема:<br>https://www.google.com/maps/d/edit?hl=ru&mid=1pg09iu5_y3ayN6VhT9dyX8y28_8cax8&ll=44.16348753903636%2C66.71762854387701&z=17<br><br>По опорная схема:<br>https://docs.google.com/drawings/d/1ydgCmzv9iOKhz-Azpv_rN0QJN_yzcv5_KdlecSV3MmY/edit<br><br>Таблица данный по опорам:<br>https://docs.google.com/spreadsheets/d/1c9dYZvEYm9fYA7IXm7PfO1AiwAVE_6xZVnN5GfeVU_k/edit?gid=0#gid=0", "tessellate": 1, "extrude": 0, "visibility": -1 }, "geometry": { "type": "LineString", "coordinates": [ [ 66.716993, 44.163995, 0.0 ], [ 66.717032, 44.163939, 0.0 ], [ 66.715331, 44.163121, 0.0 ] ] } },
{ "type": "Feature", "properties": { "Name": "ВЛ-0,4 кВ от КТПН-10/0,4 кВ №661\n", "description": "Фидер №4<br>Запитано от: КТПН-10/0,4 кВ №661<br><br>Гео-схема:<br>https://www.google.com/maps/d/edit?hl=ru&mid=1M9fDh_HkTcZ0W60M9sWdTZRD9SStm1A&ll=44.16572111133702%2C66.71517480688478&z=17<br><br>По опорная схема:<br>https://docs.google.com/drawings/d/1eFuUWTHDSA01Fnz97_rS7t_oz0ty6p6U82WXMYbb_q8/edit", "tessellate": 1, "extrude": 0, "visibility": -1 }, "geometry": { "type": "LineString", "coordinates": [ [ 66.712531, 44.16882, 0.0 ], [ 66.712431, 44.168595, 0.0 ], [ 66.71169, 44.166867, 0.0 ], [ 66.711422, 44.165961, 0.0 ], [ 66.711692, 44.166868, 0.0 ], [ 66.71253, 44.166646, 0.0 ], [ 66.712622, 44.16664, 0.0 ] ] } },
{ "type": "Feature", "properties": { "Name": "ВЛ-0,4 кВ от КТПН-10/0,4 кВ №661", "description": "Фидер №3<br>Запитано от: КТПН-10/0,4 кВ №661<br><br>Гео-схема:<br>https://www.google.com/maps/d/edit?hl=ru&mid=1M9fDh_HkTcZ0W60M9sWdTZRD9SStm1A&ll=44.16572111133702%2C66.71517480688478&z=17<br><br>По опорная схема:<br>https://docs.google.com/drawings/d/1eFuUWTHDSA01Fnz97_rS7t_oz0ty6p6U82WXMYbb_q8/edit", "tessellate": 1, "extrude": 0, "visibility": -1 }, "geometry": { "type": "LineString", "coordinates": [ [ 66.71299, 44.167175, 0.0 ], [ 66.712671, 44.166679, 0.0 ], [ 66.712647, 44.166653, 0.0 ] ] } },
{ "type": "Feature", "properties": { "Name": "ВЛ-0,4 кВ от КТПН-10/0,4 кВ №661\n", "description": "Фидер №1<br>Запитано от: КТПН-10/0,4 кВ №661<br><br>Гео-схема:<br>https://www.google.com/maps/d/edit?hl=ru&mid=1M9fDh_HkTcZ0W60M9sWdTZRD9SStm1A&ll=44.16572111133702%2C66.71517480688478&z=17<br><br>По опорная схема:<br>https://docs.google.com/drawings/d/1eFuUWTHDSA01Fnz97_rS7t_oz0ty6p6U82WXMYbb_q8/edit", "tessellate": 1, "extrude": 0, "visibility": -1 }, "geometry": { "type": "LineString", "coordinates": [ [ 66.712632, 44.166618, 0.0 ], [ 66.712595, 44.166528, 0.0 ], [ 66.71285, 44.166424, 0.0 ], [ 66.712538, 44.166033, 0.0 ], [ 66.71236, 44.165885, 0.0 ], [ 66.711345, 44.165539, 0.0 ], [ 66.71236, 44.165885, 0.0 ], [ 66.712538, 44.166033, 0.0 ], [ 66.71285, 44.166424, 0.0 ], [ 66.714181, 44.16593, 0.0 ], [ 66.710983, 44.164406, 0.0 ], [ 66.714181, 44.16593, 0.0 ], [ 66.714797, 44.165698, 0.0 ], [ 66.716504, 44.167639, 0.0 ], [ 66.714797, 44.165698, 0.0 ], [ 66.715018, 44.165593, 0.0 ], [ 66.711202, 44.1637, 0.0 ], [ 66.715018, 44.165593, 0.0 ], [ 66.71765, 44.166881, 0.0 ], [ 66.715018, 44.165593, 0.0 ], [ 66.715788, 44.165296, 0.0 ], [ 66.717512, 44.166217, 0.0 ], [ 66.715788, 44.165296, 0.0 ], [ 66.716179, 44.165137, 0.0 ], [ 66.716537, 44.164996, 0.0 ], [ 66.716179, 44.165137, 0.0 ], [ 66.713122, 44.163675, 0.0 ], [ 66.712699, 44.16352, 0.0 ], [ 66.712343, 44.163349, 0.0 ], [ 66.712015, 44.163234, 0.0 ] ] } },
{ "type": "Feature", "properties": { "Name": "ВЛ-0,4 кВ от КТПН-10/0,4 кВ №661", "description": "Фидер №2<br>Запитано от: КТПН-10/0,4 кВ №661<br><br>Гео-схема:<br>https://www.google.com/maps/d/edit?hl=ru&mid=1M9fDh_HkTcZ0W60M9sWdTZRD9SStm1A&ll=44.16572111133702%2C66.71517480688478&z=17<br><br>По опорная схема:<br>https://docs.google.com/drawings/d/1eFuUWTHDSA01Fnz97_rS7t_oz0ty6p6U82WXMYbb_q8/edit", "tessellate": 1, "extrude": 0, "visibility": -1 }, "geometry": { "type": "LineString", "coordinates": [ [ 66.712645, 44.166623, 0.0 ], [ 66.712641, 44.166593, 0.0 ], [ 66.714606, 44.165845, 0.0 ], [ 66.714991, 44.16572, 0.0 ], [ 66.715753, 44.165422, 0.0 ], [ 66.716598, 44.165092, 0.0 ] ] } },
{ "type": "Feature", "properties": { "Name": "ВЛ-0,4 кВ от КТП-10/0,4 кВ 112", "description": "Фидер №1<br>Запитано от: КТП-10/0,4 кВ 112<br><br>Гео-схема:<br>https://www.google.com/maps/d/edit?hl=ru&mid=1r-WHaVB7WstqHSnl7V0lVWYkPOEFhqs&ll=44.16360138154499%2C66.72209776205631&z=16<br><br>По опорная схема:<br>https://docs.google.com/drawings/d/1WLPqaP1lH6mzBGjXcryPm1_YuIxehIx0LOuPkPH37EA/edit", "tessellate": 1, "extrude": 0, "visibility": -1 }, "geometry": { "type": "LineString", "coordinates": [ [ 66.720614, 44.165082, 0.0 ], [ 66.721101, 44.164463, 0.0 ], [ 66.720965, 44.164342, 0.0 ], [ 66.720932, 44.164317, 0.0 ], [ 66.720923, 44.164257, 0.0 ], [ 66.720004, 44.163991, 0.0 ], [ 66.720111, 44.163861, 0.0 ], [ 66.720004, 44.163991, 0.0 ], [ 66.718729, 44.163537, 0.0 ] ] } },
{ "type": "Feature", "properties": { "Name": "ВЛ-0,4 кВ от КТП-10/0,4 кВ 112", "description": "Фидер №2<br>Запитано от:КТП-10/0,4 кВ 112<br><br>Гео-схема:<br>https://www.google.com/maps/d/edit?hl=ru&mid=1r-WHaVB7WstqHSnl7V0lVWYkPOEFhqs&ll=44.16360138154499%2C66.72209776205631&z=16<br><br>По опорная схема:<br>https://docs.google.com/drawings/d/1WLPqaP1lH6mzBGjXcryPm1_YuIxehIx0LOuPkPH37EA/edit", "tessellate": 1, "extrude": 0, "visibility": -1 }, "geometry": { "type": "LineString", "coordinates": [ [ 66.720947, 44.164312, 0.0 ], [ 66.720992, 44.164285, 0.0 ], [ 66.721459, 44.164022, 0.0 ], [ 66.721584, 44.164187, 0.0 ], [ 66.722269, 44.164492, 0.0 ], [ 66.721584, 44.164187, 0.0 ], [ 66.721459, 44.164022, 0.0 ], [ 66.721801, 44.163827, 0.0 ], [ 66.722058, 44.163575, 0.0 ], [ 66.722965, 44.163987, 0.0 ], [ 66.722058, 44.163575, 0.0 ], [ 66.722826, 44.162826, 0.0 ], [ 66.72359, 44.163104, 0.0 ], [ 66.722826, 44.162826, 0.0 ], [ 66.723233, 44.162403, 0.0 ], [ 66.723323, 44.162181, 0.0 ], [ 66.723549, 44.161874, 0.0 ], [ 66.72422, 44.162038, 0.0 ], [ 66.72467, 44.16145, 0.0 ], [ 66.72422, 44.162038, 0.0 ], [ 66.723549, 44.161874, 0.0 ], [ 66.723783, 44.161571, 0.0 ], [ 66.724124, 44.161637, 0.0 ] ] } },
{ "type": "Feature", "properties": { "Name": "ВЛ-0,4 кВ от КТП(Н)-10/0,4 кВ №699", "description": "Фидер №1<br>Запитано от: КТП(Н)-10/0,4 кВ №699<br><br>Гео-схема:<br>https://www.google.com/maps/d/edit?hl=ru&mid=1-dcMs2o-DfoOYmmHEQA-wc-H3IFO9hU&ll=44.16195073075047%2C66.72127144560768&z=17<br><br>По опорная схема:<br>https://docs.google.com/drawings/d/1DxefA8SMdyqh3r0NbfLIU9AwGYTALaCzjLjXvrrR0zQ/edit", "tessellate": 1, "extrude": 0, "visibility": -1 }, "geometry": { "type": "LineString", "coordinates": [ [ 66.721064, 44.160721, 0.0 ], [ 66.721088, 44.160834, 0.0 ], [ 66.72164, 44.161242, 0.0 ], [ 66.722186, 44.161771, 0.0 ], [ 66.722364, 44.162052, 0.0 ], [ 66.721594, 44.162645, 0.0 ], [ 66.721732, 44.16278, 0.0 ], [ 66.722308, 44.163084, 0.0 ], [ 66.721732, 44.16278, 0.0 ], [ 66.721594, 44.162645, 0.0 ], [ 66.720464, 44.161852, 0.0 ] ] } },
{ "type": "Feature", "properties": { "Name": "ВЛ-0,4 кВ от КТПН-10/0,4 кВ №482", "description": "Фидер №1<br>Запитано от: КТПН-10/0,4 кВ №482<br><br>Гео-схема:<br>https://www.google.com/maps/d/edit?hl=ru&mid=11whK37-L4CpVBCj0__dTiqW0fmHM7LA&ll=44.15750774118479%2C66.72508100000002&z=16<br><br>По опорная схема: (новый вариант)<br>https://docs.google.com/drawings/d/1slbZfuYy3ayg8zDzdNtaz2UI85_wp9NnLdzmaypC93I/edit", "tessellate": 1, "extrude": 0, "visibility": -1 }, "geometry": { "type": "LineString", "coordinates": [ [ 66.725444, 44.158106, 0.0 ], [ 66.725493, 44.158183, 0.0 ], [ 66.725612, 44.157963, 0.0 ], [ 66.726154, 44.158063, 0.0 ], [ 66.726361, 44.158417, 0.0 ], [ 66.726963, 44.158648, 0.0 ], [ 66.726361, 44.158417, 0.0 ], [ 66.726154, 44.158063, 0.0 ], [ 66.726611, 44.157804, 0.0 ], [ 66.72728, 44.157889, 0.0 ], [ 66.727583, 44.157439, 0.0 ], [ 66.72728, 44.157889, 0.0 ], [ 66.726611, 44.157804, 0.0 ], [ 66.726154, 44.158063, 0.0 ], [ 66.725612, 44.157963, 0.0 ], [ 66.725493, 44.158183, 0.0 ], [ 66.72556, 44.158336, 0.0 ], [ 66.725438, 44.158569, 0.0 ], [ 66.725846, 44.158716, 0.0 ], [ 66.726105, 44.158897, 0.0 ], [ 66.72643, 44.159034, 0.0 ], [ 66.726507, 44.159282, 0.0 ], [ 66.72643, 44.159034, 0.0 ], [ 66.726105, 44.158897, 0.0 ], [ 66.725846, 44.158716, 0.0 ], [ 66.725438, 44.158569, 0.0 ], [ 66.725058, 44.158468, 0.0 ], [ 66.725438, 44.158569, 0.0 ], [ 66.725317, 44.15882, 0.0 ], [ 66.724913, 44.158703, 0.0 ], [ 66.725317, 44.15882, 0.0 ], [ 66.725162, 44.159102, 0.0 ], [ 66.724745, 44.158962, 0.0 ], [ 66.725162, 44.159102, 0.0 ], [ 66.724996, 44.15945, 0.0 ], [ 66.724548, 44.159285, 0.0 ], [ 66.724996, 44.15945, 0.0 ], [ 66.724845, 44.159759, 0.0 ], [ 66.724333, 44.159629, 0.0 ], [ 66.724845, 44.159759, 0.0 ], [ 66.725917, 44.160029, 0.0 ], [ 66.724845, 44.159759, 0.0 ], [ 66.724703, 44.160041, 0.0 ], [ 66.725632, 44.160482, 0.0 ], [ 66.724703, 44.160041, 0.0 ], [ 66.724427, 44.160632, 0.0 ], [ 66.724063, 44.160389, 0.0 ], [ 66.724427, 44.160632, 0.0 ], [ 66.72428, 44.160908, 0.0 ], [ 66.72388, 44.160837, 0.0 ] ] } },
{ "type": "Feature", "properties": { "Name": "ВЛ-0,4 кВ от КТПН-10/0,4 кВ №81", "description": "Фидер №1<br>Запитано от: КТПН-10/0,4 кВ №81<br><br>Гео-схема:<br>https://www.google.com/maps/d/edit?hl=ru&mid=1zxNRbzcyzg6Rpv9G7U0_WTp19zkFNQ4&ll=44.168179500805124%2C66.72426515741941&z=16<br><br>По опорная схема:<br>https://docs.google.com/drawings/d/1iguyCgrE6c-by-EdepRm4v4kMyz7NP3Sy23jmyH0koU/edit", "tessellate": 1, "extrude": 0, "visibility": -1 }, "geometry": { "type": "LineString", "coordinates": [ [ 66.724057, 44.168313, 0.0 ], [ 66.724036, 44.167966, 0.0 ], [ 66.724057, 44.167862, 0.0 ], [ 66.724026, 44.167852, 0.0 ], [ 66.724057, 44.167862, 0.0 ], [ 66.724143, 44.167756, 0.0 ], [ 66.724351, 44.167825, 0.0 ], [ 66.72481, 44.167451, 0.0 ], [ 66.725253, 44.167625, 0.0 ], [ 66.725416, 44.167827, 0.0 ], [ 66.725253, 44.167625, 0.0 ], [ 66.72481, 44.167451, 0.0 ], [ 66.724994, 44.167267, 0.0 ], [ 66.725126, 44.167032, 0.0 ], [ 66.726471, 44.166892, 0.0 ], [ 66.726645, 44.166974, 0.0 ], [ 66.726664, 44.167965, 0.0 ], [ 66.725967, 44.168147, 0.0 ], [ 66.726664, 44.167965, 0.0 ], [ 66.726957, 44.16839, 0.0 ], [ 66.726664, 44.167965, 0.0 ], [ 66.726645, 44.166974, 0.0 ], [ 66.726471, 44.166892, 0.0 ], [ 66.726977, 44.166857, 0.0 ], [ 66.727602, 44.166655, 0.0 ], [ 66.727662, 44.1665, 0.0 ], [ 66.726913, 44.165788, 0.0 ], [ 66.726613, 44.165687, 0.0 ], [ 66.726369, 44.165369, 0.0 ], [ 66.726613, 44.165687, 0.0 ], [ 66.726741, 44.165914, 0.0 ], [ 66.726575, 44.16605, 0.0 ], [ 66.726741, 44.165914, 0.0 ], [ 66.726613, 44.165687, 0.0 ], [ 66.726913, 44.165788, 0.0 ], [ 66.727662, 44.1665, 0.0 ], [ 66.727602, 44.166655, 0.0 ], [ 66.726977, 44.166857, 0.0 ], [ 66.726471, 44.166892, 0.0 ], [ 66.725126, 44.167032, 0.0 ], [ 66.725396, 44.166662, 0.0 ], [ 66.725697, 44.166008, 0.0 ] ] } },
{ "type": "Feature", "properties": { "Name": "ВЛ-0,4 кВ от КТПН-10/0,4 кВ №81", "description": "Фидер №2<br>Запитано от: КТПН-10/0,4 кВ №81<br><br>Гео-схема:<br>https://www.google.com/maps/d/edit?hl=ru&mid=1zxNRbzcyzg6Rpv9G7U0_WTp19zkFNQ4&ll=44.168179500805124%2C66.72426515741941&z=16<br><br>По опорная схема:<br>https://docs.google.com/drawings/d/1iguyCgrE6c-by-EdepRm4v4kMyz7NP3Sy23jmyH0koU/edit", "tessellate": 1, "extrude": 0, "visibility": -1 }, "geometry": { "type": "LineString", "coordinates": [ [ 66.723995, 44.167846, 0.0 ], [ 66.72391, 44.167779, 0.0 ], [ 66.723947, 44.167534, 0.0 ], [ 66.724159, 44.167066, 0.0 ], [ 66.72375, 44.166919, 0.0 ], [ 66.724159, 44.167066, 0.0 ], [ 66.724606, 44.166404, 0.0 ], [ 66.724738, 44.166263, 0.0 ], [ 66.724498, 44.166076, 0.0 ], [ 66.723546, 44.165705, 0.0 ], [ 66.72432, 44.166004, 0.0 ], [ 66.724418, 44.165926, 0.0 ], [ 66.724927, 44.165269, 0.0 ], [ 66.725257, 44.164722, 0.0 ], [ 66.72546, 44.164599, 0.0 ], [ 66.725257, 44.164722, 0.0 ], [ 66.724841, 44.164496, 0.0 ] ] } },
{ "type": "Feature", "properties": { "Name": "ВЛ-0,4 кВ от КТПН-10/0,4 кВ №81", "description": "Фидер №3<br>Запитано от: КТПН-10/0,4 кВ №81<br><br>Гео-схема:<br>https://www.google.com/maps/d/edit?hl=ru&mid=1zxNRbzcyzg6Rpv9G7U0_WTp19zkFNQ4&ll=44.168179500805124%2C66.72426515741941&z=16<br><br>По опорная схема:<br>https://docs.google.com/drawings/d/1iguyCgrE6c-by-EdepRm4v4kMyz7NP3Sy23jmyH0koU/edit", "tessellate": 1, "extrude": 0, "visibility": -1 }, "geometry": { "type": "LineString", "coordinates": [ [ 66.723995, 44.167846, 0.0 ], [ 66.723899, 44.167788, 0.0 ], [ 66.722669, 44.167324, 0.0 ], [ 66.722497, 44.167822, 0.0 ], [ 66.722456, 44.168043, 0.0 ], [ 66.722448, 44.168725, 0.0 ], [ 66.722806, 44.168718, 0.0 ], [ 66.723083, 44.16869, 0.0 ], [ 66.723433, 44.16867, 0.0 ], [ 66.723083, 44.16869, 0.0 ], [ 66.722806, 44.168718, 0.0 ], [ 66.722448, 44.168725, 0.0 ], [ 66.722456, 44.168043, 0.0 ], [ 66.722497, 44.167822, 0.0 ], [ 66.722669, 44.167324, 0.0 ], [ 66.721817, 44.167011, 0.0 ], [ 66.72231, 44.166398, 0.0 ], [ 66.722885, 44.166648, 0.0 ], [ 66.722938, 44.166816, 0.0 ], [ 66.722885, 44.166648, 0.0 ], [ 66.72231, 44.166398, 0.0 ], [ 66.721817, 44.167011, 0.0 ], [ 66.721261, 44.166806, 0.0 ], [ 66.721028, 44.167016, 0.0 ], [ 66.720882, 44.167314, 0.0 ], [ 66.719901, 44.169533, 0.0 ] ] } },
{ "type": "Feature", "properties": { "Name": "ВЛ-0,4 кВ от КТПН-10/0,4 кВ №671", "description": "Фидер №1<br>Запитано от: КТПН-10/0,4 кВ №671", "tessellate": 1, "extrude": 0, "visibility": -1 }, "geometry": { "type": "LineString", "coordinates": [ [ 66.729028, 44.168404, 0.0 ], [ 66.729069, 44.16839, 0.0 ], [ 66.729388, 44.168313, 0.0 ], [ 66.72853, 44.167344, 0.0 ], [ 66.727946, 44.167811, 0.0 ], [ 66.72853, 44.167344, 0.0 ], [ 66.727899, 44.166677, 0.0 ], [ 66.72853, 44.167344, 0.0 ], [ 66.729388, 44.168313, 0.0 ], [ 66.729566, 44.168313, 0.0 ], [ 66.728203, 44.166784, 0.0 ], [ 66.728275, 44.16661, 0.0 ] ] } },
{ "type": "Feature", "properties": { "Name": "ВЛ-0,4 кВ от КТПН-10/0,4 кВ №671", "description": "Фидер №2<br>Запитано от: КТПН-10/0,4 кВ №671", "tessellate": 1, "extrude": 0, "visibility": -1 }, "geometry": { "type": "LineString", "coordinates": [ [ 66.7311417, 44.1682734, 0.0 ], [ 66.7293178, 44.1688717, 0.0 ], [ 66.728143, 44.1692373, 0.0 ], [ 66.7293178, 44.1688717, 0.0 ], [ 66.729225, 44.168721, 0.0 ], [ 66.729038, 44.168424, 0.0 ], [ 66.729225, 44.168721, 0.0 ], [ 66.727763, 44.169195, 0.0 ], [ 66.727537, 44.16917, 0.0 ], [ 66.727102, 44.168983, 0.0 ], [ 66.724499, 44.167891, 0.0 ], [ 66.727102, 44.168983, 0.0 ], [ 66.727101, 44.169131, 0.0 ], [ 66.724361, 44.167987, 0.0 ] ] } },
{ "type": "Feature", "properties": { "Name": "ВЛ-0,4 кВ от ТП-10/0,4 кВ №175", "description": "Запитано от: ТП-10/0,4 кВ №175", "tessellate": 1, "extrude": 0, "visibility": -1 }, "geometry": { "type": "LineString", "coordinates": [ [ 66.729687, 44.1676, 0.0 ], [ 66.729576, 44.167441, 0.0 ], [ 66.729406, 44.167234, 0.0 ], [ 66.729275, 44.16702, 0.0 ], [ 66.729128, 44.16694, 0.0 ], [ 66.729074, 44.166878, 0.0 ], [ 66.728911, 44.16664, 0.0 ], [ 66.728791, 44.166342, 0.0 ], [ 66.728456, 44.165994, 0.0 ], [ 66.728791, 44.166342, 0.0 ], [ 66.728911, 44.16664, 0.0 ], [ 66.729074, 44.166878, 0.0 ], [ 66.729128, 44.16694, 0.0 ], [ 66.729371, 44.166846, 0.0 ], [ 66.729363, 44.166648, 0.0 ] ] } },
{ "type": "Feature", "properties": { "Name": "ВЛ-0,4 кВ от ТП-10/0,4 кВ №147", "description": "Фидер №1<br>Запитано от: ТП-10/0,4 кВ №147", "tessellate": 1, "extrude": 0, "visibility": -1 }, "geometry": { "type": "LineString", "coordinates": [ [ 66.729699, 44.169035, 0.0 ], [ 66.729404, 44.169156, 0.0 ], [ 66.729018, 44.169291, 0.0 ], [ 66.729109, 44.169618, 0.0 ], [ 66.729209, 44.169621, 0.0 ], [ 66.729554, 44.169705, 0.0 ], [ 66.729586, 44.169865, 0.0 ], [ 66.730069, 44.169811, 0.0 ], [ 66.730116, 44.169554, 0.0 ] ] } },
{ "type": "Feature", "properties": { "Name": "ВЛ-0,4 кВ от ТП-10/0,4 кВ №147", "description": "Фидер №2<br>Запитано от: ТП-10/0,4 кВ №147", "tessellate": 1, "extrude": 0, "visibility": -1 }, "geometry": { "type": "LineString", "coordinates": [ [ 66.729042, 44.169633, 0.0 ], [ 66.728777, 44.169696, 0.0 ], [ 66.728488, 44.169562, 0.0 ], [ 66.72833, 44.169666, 0.0 ], [ 66.728658, 44.169799, 0.0 ], [ 66.728981, 44.169933, 0.0 ], [ 66.729287, 44.170073, 0.0 ], [ 66.729383, 44.170127, 0.0 ], [ 66.729172, 44.17042, 0.0 ], [ 66.72892, 44.170514, 0.0 ], [ 66.72842, 44.170535, 0.0 ], [ 66.728075, 44.170571, 0.0 ], [ 66.72842, 44.170535, 0.0 ], [ 66.72892, 44.170514, 0.0 ], [ 66.729172, 44.17042, 0.0 ], [ 66.729002, 44.170618, 0.0 ], [ 66.728755, 44.170894, 0.0 ], [ 66.729191, 44.171144, 0.0 ], [ 66.729509, 44.17119, 0.0 ], [ 66.729501, 44.171519, 0.0 ], [ 66.729448, 44.171814, 0.0 ], [ 66.729434, 44.17203, 0.0 ], [ 66.729354, 44.172576, 0.0 ], [ 66.729225, 44.173354, 0.0 ] ] } },
{ "type": "Feature", "properties": { "Name": "ВЛ-0,4 кВ от КТП(Н)-10/0,4 кВ №700", "description": "Запитано от: КТП(Н)-10/0,4 кВ №700", "tessellate": 1, "extrude": 0, "visibility": -1 }, "geometry": { "type": "LineString", "coordinates": [ [ 66.730551, 44.170623, 0.0 ], [ 66.730535, 44.170458, 0.0 ], [ 66.730688, 44.170285, 0.0 ], [ 66.730825, 44.170115, 0.0 ], [ 66.730761, 44.169996, 0.0 ], [ 66.731076, 44.169965, 0.0 ], [ 66.731288, 44.169923, 0.0 ], [ 66.731432, 44.170053, 0.0 ], [ 66.731288, 44.169923, 0.0 ], [ 66.731076, 44.169965, 0.0 ], [ 66.730761, 44.169996, 0.0 ], [ 66.730263, 44.170061, 0.0 ], [ 66.729929, 44.170075, 0.0 ], [ 66.729416, 44.169939, 0.0 ], [ 66.728974, 44.169759, 0.0 ], [ 66.72854, 44.169597, 0.0 ], [ 66.728086, 44.169411, 0.0 ], [ 66.727758, 44.169426, 0.0 ], [ 66.727568, 44.169535, 0.0 ], [ 66.727337, 44.169888, 0.0 ] ] } },
{ "type": "Feature", "properties": { "Name": "ВЛ-0,4 кВ от КТПН-10/0,4 кВ №391", "description": "Фидер №1<br>Запитано от: КТПН-10/0,4 кВ №391<br><br>Гео-схема:<br>https://www.google.com/maps/d/u/0/edit?hl=ru&mid=1C2mxSFoX2NjUNsD5P7V1Yjd0g0bxrv0&ll=44.17108597566438%2C66.72389029798056&z=17<br><br>По опорная схема:<br>https://docs.google.com/drawings/d/1kVKNfGow6b1of5N4dfu6No0DKwTo2xv_Keaez91lFYI/edit", "tessellate": 1, "extrude": 0, "visibility": -1 }, "geometry": { "type": "LineString", "coordinates": [ [ 66.721164, 44.172741, 0.0 ], [ 66.72381, 44.171713, 0.0 ], [ 66.723987, 44.171746, 0.0 ], [ 66.723983, 44.171708, 0.0 ] ] } },
{ "type": "Feature", "properties": { "Name": "ВЛ-0,4 кВ от КТПН-10/0,4 кВ №391", "description": "Фидер №2<br>Запитано от: КТПН-10/0,4 кВ №391<br><br>Гео-схема:<br>https://www.google.com/maps/d/u/0/edit?hl=ru&mid=1C2mxSFoX2NjUNsD5P7V1Yjd0g0bxrv0&ll=44.17108597566438%2C66.72389029798056&z=17<br><br>По опорная схема:<br>https://docs.google.com/drawings/d/1kVKNfGow6b1of5N4dfu6No0DKwTo2xv_Keaez91lFYI/edit", "tessellate": 1, "extrude": 0, "visibility": -1 }, "geometry": { "type": "LineString", "coordinates": [ [ 66.723983, 44.1717061, 0.0 ], [ 66.723987, 44.1717441, 0.0 ], [ 66.72381, 44.1717111, 0.0 ], [ 66.723651, 44.1714751, 0.0 ], [ 66.723465, 44.1712441, 0.0 ], [ 66.722961, 44.1707501, 0.0 ], [ 66.722222, 44.1710651, 0.0 ], [ 66.72202, 44.1711131, 0.0 ], [ 66.721819, 44.1712121, 0.0 ], [ 66.721624, 44.1712771, 0.0 ], [ 66.721223, 44.1709981, 0.0 ], [ 66.721624, 44.1712771, 0.0 ], [ 66.720861, 44.1715541, 0.0 ], [ 66.720776, 44.1717091, 0.0 ], [ 66.720861, 44.1715541, 0.0 ], [ 66.721624, 44.1712771, 0.0 ], [ 66.721819, 44.1712121, 0.0 ], [ 66.72202, 44.1711131, 0.0 ], [ 66.721901, 44.1708891, 0.0 ], [ 66.721628, 44.1696251, 0.0 ], [ 66.721665, 44.1688451, 0.0 ], [ 66.721628, 44.1696251, 0.0 ], [ 66.721901, 44.1708891, 0.0 ], [ 66.72202, 44.1711131, 0.0 ], [ 66.722222, 44.1710651, 0.0 ], [ 66.722961, 44.1707501, 0.0 ], [ 66.722736, 44.1705731, 0.0 ], [ 66.722506, 44.1695491, 0.0 ], [ 66.72296, 44.1696251, 0.0 ], [ 66.723929, 44.1703841, 0.0 ], [ 66.72296, 44.1696251, 0.0 ], [ 66.722506, 44.1695491, 0.0 ], [ 66.722466, 44.1690811, 0.0 ], [ 66.722506, 44.169551, 0.0 ], [ 66.722736, 44.170575, 0.0 ], [ 66.722961, 44.170752, 0.0 ], [ 66.722222, 44.171067, 0.0 ], [ 66.72202, 44.171115, 0.0 ], [ 66.721819, 44.171214, 0.0 ], [ 66.721624, 44.1712771, 0.0 ], [ 66.720861, 44.1715541, 0.0 ], [ 66.7208559, 44.171179, 0.0 ], [ 66.720459, 44.1711636, 0.0 ], [ 66.7203021, 44.1717331, 0.0 ], [ 66.7200768, 44.1720197, 0.0 ], [ 66.7190481, 44.1729133, 0.0 ], [ 66.7200768, 44.1720197, 0.0 ], [ 66.7199711, 44.1719324, 0.0 ], [ 66.7190578, 44.171489, 0.0 ], [ 66.7197179, 44.1699464, 0.0 ], [ 66.7190578, 44.171489, 0.0 ], [ 66.7186767, 44.1720283, 0.0 ], [ 66.7184111, 44.1726939, 0.0 ] ] } },
{ "type": "Feature", "properties": { "Name": "ВЛ-0,4 кВ от КТПБ-10/0,4 кВ №327", "description": "Фидер №1<br>Запитано от: КТПБ-10/0,4 кВ №327<br><br>Гео-схема:<br>https://www.google.com/maps/d/u/0/edit?hl=ru&mid=1mEEUI04VWqvjlffp8J1j3DbDx2YUNuU&ll=44.172571929596415%2C66.72820506214144&z=16 <br><br>По опорная схема:<br>https://docs.google.com/drawings/d/1b1mok3MyFFi5XCWgKaDUbkw--I0ExkckbQEqWApfhyQ/edit", "tessellate": 1, "extrude": 0, "visibility": -1 }, "geometry": { "type": "LineString", "coordinates": [ [ 66.725175, 44.173179, 0.0 ], [ 66.72513, 44.173106, 0.0 ], [ 66.725663, 44.172384, 0.0 ], [ 66.727824, 44.174188, 0.0 ], [ 66.725663, 44.172384, 0.0 ], [ 66.725462, 44.172197, 0.0 ], [ 66.724349, 44.171444, 0.0 ], [ 66.725462, 44.172197, 0.0 ], [ 66.725663, 44.172384, 0.0 ], [ 66.726069, 44.17181, 0.0 ], [ 66.727771, 44.172882, 0.0 ], [ 66.72856, 44.173464, 0.0 ], [ 66.727771, 44.172882, 0.0 ], [ 66.726069, 44.17181, 0.0 ], [ 66.724417, 44.170725, 0.0 ], [ 66.726069, 44.17181, 0.0 ], [ 66.726737, 44.170827, 0.0 ], [ 66.729069, 44.172107, 0.0 ], [ 66.726737, 44.170827, 0.0 ], [ 66.726496, 44.170658, 0.0 ], [ 66.72594, 44.170391, 0.0 ], [ 66.724606, 44.169715, 0.0 ], [ 66.72594, 44.170391, 0.0 ], [ 66.726496, 44.170658, 0.0 ], [ 66.726737, 44.170827, 0.0 ], [ 66.72756, 44.169534, 0.0 ] ] } },
{ "type": "Feature", "properties": { "Name": "ВЛ-0,4 кВ от КТПБ-10/0,4 кВ №327", "description": "Фидер №2<br>Запитано от: КТПБ-10/0,4 кВ №327<br><br>Гео-схема:<br>https://www.google.com/maps/d/u/0/edit?hl=ru&mid=1mEEUI04VWqvjlffp8J1j3DbDx2YUNuU&ll=44.172571929596415%2C66.72820506214144&z=16 <br><br>По опорная схема:<br>https://docs.google.com/drawings/d/1b1mok3MyFFi5XCWgKaDUbkw--I0ExkckbQEqWApfhyQ/edit", "tessellate": 1, "extrude": 0, "visibility": -1 }, "geometry": { "type": "LineString", "coordinates": [ [ 66.724647, 44.174294, 0.0 ], [ 66.725463, 44.173724, 0.0 ], [ 66.725273, 44.173558, 0.0 ], [ 66.725074, 44.173408, 0.0 ], [ 66.725167, 44.173328, 0.0 ], [ 66.725194, 44.173238, 0.0 ], [ 66.725167, 44.173328, 0.0 ], [ 66.725074, 44.173408, 0.0 ], [ 66.724288, 44.174058, 0.0 ], [ 66.722958, 44.174893, 0.0 ], [ 66.724288, 44.174058, 0.0 ], [ 66.725074, 44.173408, 0.0 ], [ 66.724905, 44.173318, 0.0 ], [ 66.7247, 44.173583, 0.0 ], [ 66.724457, 44.173777, 0.0 ], [ 66.722788, 44.174838, 0.0 ], [ 66.724457, 44.173777, 0.0 ], [ 66.7247, 44.173583, 0.0 ], [ 66.724905, 44.173318, 0.0 ], [ 66.724661, 44.173062, 0.0 ], [ 66.724529, 44.172824, 0.0 ], [ 66.724006, 44.172116, 0.0 ], [ 66.724529, 44.172824, 0.0 ], [ 66.724661, 44.173062, 0.0 ], [ 66.723658, 44.173439, 0.0 ], [ 66.723467, 44.173208, 0.0 ], [ 66.723368, 44.172983, 0.0 ], [ 66.723039, 44.172588, 0.0 ], [ 66.723368, 44.172983, 0.0 ], [ 66.723467, 44.173208, 0.0 ], [ 66.723658, 44.173439, 0.0 ], [ 66.723031, 44.173663, 0.0 ], [ 66.722797, 44.173793, 0.0 ], [ 66.722601, 44.173884, 0.0 ], [ 66.722797, 44.173793, 0.0 ], [ 66.722443, 44.173336, 0.0 ], [ 66.722102, 44.173383, 0.0 ] ] } },
{ "type": "Feature", "properties": { "Name": "ВЛ-0,4 кВ от КТПН-10/0,4 кВ №77", "description": "Фидер №1<br>Запитано от: КТПН-10/0,4 кВ №77<br><br>Гео-схема:<br>https://www.google.com/maps/d/u/0/edit?hl=ru&mid=1BlBrfTCBwX8wF7gtn-NQM4pb4NZWGOs&ll=44.17652424782368%2C66.72533654242748&z=18<br><br>По опорная схема: (новый вариант)<br>https://docs.google.com/drawings/d/1PD82O9ph4KevI-V9AMdUxt2w2pVDrzstSXjynozl_KM/edit<br><br>По опорная схема: (старый вариант)<br>https://drive.google.com/file/d/1ibyvepnDD1gb_moK4OVyDfkIz-Yv_Y9x/view?usp=sharing", "tessellate": 1, "extrude": 0, "visibility": -1 }, "geometry": { "type": "LineString", "coordinates": [ [ 66.726317, 44.174462, 0.0 ], [ 66.726498, 44.175361, 0.0 ], [ 66.726563, 44.17546, 0.0 ], [ 66.727263, 44.175093, 0.0 ], [ 66.726563, 44.17546, 0.0 ], [ 66.725714, 44.175925, 0.0 ], [ 66.72521, 44.17619, 0.0 ], [ 66.724831, 44.176415, 0.0 ], [ 66.724354, 44.176079, 0.0 ], [ 66.724831, 44.176415, 0.0 ], [ 66.72457, 44.176655, 0.0 ], [ 66.724563, 44.176692, 0.0 ] ] } },
{ "type": "Feature", "properties": { "Name": "ВЛ-0,4 кВ от КТПН-10/0,4 кВ №77", "description": "Фидер №2<br>Запитано от: КТПН-10/0,4 кВ №77<br><br>Гео-схема:<br>https://www.google.com/maps/d/u/0/edit?hl=ru&mid=1BlBrfTCBwX8wF7gtn-NQM4pb4NZWGOs&ll=44.17652424782368%2C66.72533654242748&z=18<br><br>По опорная схема: (новый вариант)<br>https://docs.google.com/drawings/d/1PD82O9ph4KevI-V9AMdUxt2w2pVDrzstSXjynozl_KM/edit<br><br>По опорная схема: (старый вариант)<br>https://drive.google.com/file/d/1ibyvepnDD1gb_moK4OVyDfkIz-Yv_Y9x/view?usp=sharing", "tessellate": 1, "extrude": 0, "visibility": -1 }, "geometry": { "type": "LineString", "coordinates": [ [ 66.725827, 44.174626, 0.0 ], [ 66.725355, 44.174944, 0.0 ], [ 66.724535, 44.175211, 0.0 ], [ 66.724125, 44.175269, 0.0 ], [ 66.723685, 44.175509, 0.0 ], [ 66.723561, 44.175638, 0.0 ], [ 66.723269, 44.175832, 0.0 ], [ 66.723097, 44.175673, 0.0 ], [ 66.723003, 44.175419, 0.0 ], [ 66.723097, 44.175673, 0.0 ], [ 66.722539, 44.175815, 0.0 ], [ 66.722356, 44.175945, 0.0 ], [ 66.722135, 44.176064, 0.0 ], [ 66.721977, 44.176118, 0.0 ], [ 66.722135, 44.176064, 0.0 ], [ 66.722356, 44.175945, 0.0 ], [ 66.722539, 44.175815, 0.0 ], [ 66.723097, 44.175673, 0.0 ], [ 66.723269, 44.175832, 0.0 ], [ 66.724339, 44.176804, 0.0 ], [ 66.724475, 44.176732, 0.0 ], [ 66.724527, 44.176714, 0.0 ] ] } },
{ "type": "Feature", "properties": { "Name": "ВЛ-0,4 кВ от КТПН-10/0,4 кВ №77", "description": "Фидер №3<br>Запитано от: КТПН-10/0,4 кВ №77<br><br>Гео-схема:<br>https://www.google.com/maps/d/u/0/edit?hl=ru&mid=1BlBrfTCBwX8wF7gtn-NQM4pb4NZWGOs&ll=44.17652424782368%2C66.72533654242748&z=18<br><br>По опорная схема: (новый вариант)<br>https://docs.google.com/drawings/d/1PD82O9ph4KevI-V9AMdUxt2w2pVDrzstSXjynozl_KM/edit<br><br>По опорная схема: (старый вариант)<br>https://drive.google.com/file/d/1ibyvepnDD1gb_moK4OVyDfkIz-Yv_Y9x/view?usp=sharing", "tessellate": 1, "extrude": 0, "visibility": -1 }, "geometry": { "type": "LineString", "coordinates": [ [ 66.722931, 44.177875, 0.0 ], [ 66.724139, 44.177067, 0.0 ], [ 66.72438, 44.176877, 0.0 ], [ 66.724339, 44.176804, 0.0 ], [ 66.724527, 44.176714, 0.0 ] ] } },
{ "type": "Feature", "properties": { "Name": "ВЛ-0,4 кВ от КТПН-10/0,4 кВ №725", "description": "Фидер №1<br>Запитано от: КТПН-10/0,4 кВ №725<br><br>Гео-схема: (В процессе обработки)<br>https://www.google.com/maps/d/u/0/edit?hl=ru&mid=1YW1gJTinimEcRh9fucaqRVzEqFg05co&ll=44.174040013087875%2C66.71886475123365&z=17", "tessellate": 1, "extrude": 0, "visibility": -1 }, "geometry": { "type": "LineString", "coordinates": [ [ 66.716899, 44.176105, 0.0 ], [ 66.717151, 44.175628, 0.0 ], [ 66.717595, 44.175388, 0.0 ], [ 66.717881, 44.175037, 0.0 ], [ 66.718217, 44.174943, 0.0 ], [ 66.718442, 44.1748, 0.0 ], [ 66.718789, 44.1746, 0.0 ], [ 66.718922, 44.174546, 0.0 ], [ 66.718789, 44.1746, 0.0 ], [ 66.719122, 44.17434, 0.0 ], [ 66.71948, 44.174028, 0.0 ], [ 66.71973, 44.173824, 0.0 ], [ 66.719992, 44.173563, 0.0 ], [ 66.719941, 44.173273, 0.0 ], [ 66.720256, 44.173157, 0.0 ], [ 66.720496, 44.173062, 0.0 ], [ 66.720789, 44.172917, 0.0 ] ] } },
{ "type": "Feature", "properties": { "Name": "ВЛ-0,4 кВ от КТПН-10/0,4 кВ №783", "description": "Фидер №1<br>Запитано от: КТПН-10/0,4 кВ №783<br><br>Гео-схема:<br>https://www.google.com/maps/d/u/0/edit?mid=129A2Jm4cP8xjwSR-2REQs5LGj04auMM&hl=ru&ll=44.17942848787453%2C66.6878170255628&z=17", "tessellate": 1, "extrude": 0, "visibility": -1 }, "geometry": { "type": "LineString", "coordinates": [ [ 66.683698, 44.177871, 0.0 ], [ 66.68594, 44.177536, 0.0 ], [ 66.686219, 44.178491, 0.0 ], [ 66.683338, 44.178945, 0.0 ], [ 66.686219, 44.178491, 0.0 ], [ 66.686139, 44.178616, 0.0 ], [ 66.683365, 44.179058, 0.0 ], [ 66.686139, 44.178616, 0.0 ], [ 66.686289, 44.178629, 0.0 ] ] } },
{ "type": "Feature", "properties": { "Name": "ВЛ-0,4 кВ от КТПН-10/0,4 кВ №783", "description": "Фидер №2<br>Запитано от: КТПН-10/0,4 кВ №783<br><br>Гео-схема:<br>https://www.google.com/maps/d/u/0/edit?mid=129A2Jm4cP8xjwSR-2REQs5LGj04auMM&hl=ru&ll=44.17942848787453%2C66.6878170255628&z=17", "tessellate": 1, "extrude": 0, "visibility": -1 }, "geometry": { "type": "LineString", "coordinates": [ [ 66.686341, 44.178623, 0.0 ], [ 66.686479, 44.17858, 0.0 ], [ 66.686208, 44.177525, 0.0 ], [ 66.688101, 44.177241, 0.0 ], [ 66.686208, 44.177525, 0.0 ], [ 66.686479, 44.17858, 0.0 ], [ 66.686534, 44.178437, 0.0 ], [ 66.688515, 44.17819, 0.0 ], [ 66.686534, 44.178437, 0.0 ], [ 66.686479, 44.17858, 0.0 ], [ 66.689053, 44.178242, 0.0 ], [ 66.689025, 44.178142, 0.0 ], [ 66.688899, 44.178158, 0.0 ], [ 66.689025, 44.178142, 0.0 ], [ 66.689351, 44.178101, 0.0 ], [ 66.689025, 44.178142, 0.0 ], [ 66.689053, 44.178242, 0.0 ], [ 66.689829, 44.17815, 0.0 ], [ 66.689053, 44.178242, 0.0 ], [ 66.686479, 44.17858, 0.0 ], [ 66.68662, 44.178906, 0.0 ], [ 66.6868, 44.179568, 0.0 ], [ 66.687165, 44.179514, 0.0 ], [ 66.690072, 44.179109, 0.0 ], [ 66.687165, 44.179514, 0.0 ], [ 66.687184, 44.179642, 0.0 ], [ 66.690588, 44.179172, 0.0 ] ] } },
{ "type": "Feature", "properties": { "Name": "ВЛ-0,4 кВ от КТПН-10/0,4 кВ №783", "description": "Фидер №3<br>Запитано от: КТПН-10/0,4 кВ №783<br><br>Гео-схема:<br>https://www.google.com/maps/d/u/0/edit?mid=129A2Jm4cP8xjwSR-2REQs5LGj04auMM&hl=ru&ll=44.17942848787453%2C66.6878170255628&z=17", "tessellate": 1, "extrude": 0, "visibility": -1 }, "geometry": { "type": "LineString", "coordinates": [ [ 66.686322, 44.178644, 0.0 ], [ 66.686558, 44.179604, 0.0 ], [ 66.684752, 44.179883, 0.0 ], [ 66.686558, 44.179604, 0.0 ], [ 66.686576, 44.179726, 0.0 ], [ 66.684169, 44.180083, 0.0 ], [ 66.684162, 44.179971, 0.0 ] ] } },
{ "type": "Feature", "properties": { "Name": "ВЛ-0,4 кВ от КТПН-10/0,4 кВ №782", "description": "Фидер №1<br>Запитано от: КТПН-10/0,4 кВ №782", "tessellate": 1, "extrude": 0, "visibility": -1 }, "geometry": { "type": "LineString", "coordinates": [ [ 66.694704, 44.177511, 0.0 ], [ 66.694473, 44.177486, 0.0 ], [ 66.692512, 44.177775, 0.0 ], [ 66.692377, 44.177647, 0.0 ], [ 66.692512, 44.177775, 0.0 ], [ 66.691565, 44.177915, 0.0 ], [ 66.691497, 44.177775, 0.0 ], [ 66.690707, 44.177901, 0.0 ], [ 66.691497, 44.177775, 0.0 ], [ 66.691565, 44.177915, 0.0 ], [ 66.690723, 44.178027, 0.0 ] ] } },
{ "type": "Feature", "properties": { "Name": "Линия 2", "tessellate": 1, "extrude": 0, "visibility": -1 }, "geometry": { "type": "LineString", "coordinates": [ [ 66.699527, 44.17701, 0.0 ], [ 66.697181, 44.177233, 0.0 ], [ 66.696739, 44.177296, 0.0 ], [ 66.696307, 44.177298, 0.0 ], [ 66.695259, 44.177438, 0.0 ], [ 66.694828, 44.177454, 0.0 ], [ 66.694738, 44.177462, 0.0 ], [ 66.694698, 44.177363, 0.0 ], [ 66.699519, 44.176905, 0.0 ], [ 66.694698, 44.177363, 0.0 ], [ 66.694716, 44.177163, 0.0 ], [ 66.694588, 44.176285, 0.0 ], [ 66.695991, 44.176201, 0.0 ], [ 66.696502, 44.176123, 0.0 ], [ 66.696481, 44.175685, 0.0 ], [ 66.696502, 44.176123, 0.0 ], [ 66.699496, 44.175865, 0.0 ] ] } },
{ "type": "Feature", "properties": { "Name": "Линия 3", "tessellate": 1, "extrude": 0, "visibility": -1 }, "geometry": { "type": "LineString", "coordinates": [ [ 66.694769, 44.177513, 0.0 ], [ 66.694784, 44.177517, 0.0 ], [ 66.694964, 44.178562, 0.0 ], [ 66.691488, 44.179022, 0.0 ] ] } },
{ "type": "Feature", "properties": { "Name": "ВЛ-0,4 кВ от КТПН-10/0,4 кВ №75", "description": "Фидер №1<br>Запитано от: КТПН-10/0,4 кВ №75<br><br><br>Гео-схема: (в процессе обработки)<br>https://www.google.com/maps/d/viewer?hl=ru&mid=1ACWhl_d7ULNQWthl6_pU55sK1g_RBvQ&ll=0%2C0&z=18", "tessellate": 1, "extrude": 0, "visibility": -1 }, "geometry": { "type": "LineString", "coordinates": [ [ 66.732023, 44.166253, 0.0 ], [ 66.732408, 44.165099, 0.0 ], [ 66.732223, 44.164985, 0.0 ], [ 66.73094, 44.164725, 0.0 ], [ 66.730854, 44.164897, 0.0 ], [ 66.73094, 44.164725, 0.0 ], [ 66.730561, 44.164662, 0.0 ], [ 66.73094, 44.164725, 0.0 ], [ 66.732223, 44.164985, 0.0 ], [ 66.732284, 44.164863, 0.0 ], [ 66.730727, 44.164593, 0.0 ], [ 66.732284, 44.164863, 0.0 ], [ 66.732663, 44.163809, 0.0 ], [ 66.732284, 44.164863, 0.0 ], [ 66.732223, 44.164985, 0.0 ], [ 66.732408, 44.165099, 0.0 ], [ 66.732502, 44.164973, 0.0 ], [ 66.732521, 44.164953, 0.0 ] ] } },
{ "type": "Feature", "properties": { "Name": "ВЛ-0,4 кВ от КТПН-10/0,4 кВ №75", "description": "Фидер №2<br>Запитано от: КТПН-10/0,4 кВ №75<br><br><br>Гео-схема: (в процессе обработки)<br>https://www.google.com/maps/d/viewer?hl=ru&mid=1ACWhl_d7ULNQWthl6_pU55sK1g_RBvQ&ll=0%2C0&z=18", "tessellate": 1, "extrude": 0, "visibility": -1 }, "geometry": { "type": "LineString", "coordinates": [ [ 66.73255, 44.164958, 0.0 ], [ 66.734112, 44.165348, 0.0 ], [ 66.733604, 44.166185, 0.0 ], [ 66.734112, 44.165348, 0.0 ], [ 66.734954, 44.165518, 0.0 ], [ 66.735353, 44.164392, 0.0 ] ] } },
{ "type": "Feature", "properties": { "Name": "ВЛ-0,4 кВ от КТПН-10/0,4 кВ №620", "description": "Фидер №1<br>Запитано от: КТПН-10/0,4 кВ №620<br><br>Гео-схема:<br>https://www.google.com/maps/d/u/0/edit?hl=ru&mid=1cWNUz3QWJ5KG9lwSqPsnM0Hs61afWbs&ll=44.17801775278168%2C66.70330934252141&z=17 <br><br>По опорная схема:<br>https://docs.google.com/drawings/d/1W6JX9aAgD21pQhBadIHsd3U85luF85IU2VyCEsHT-9U/edit", "tessellate": 1, "extrude": 0, "visibility": -1 }, "geometry": { "type": "LineString", "coordinates": [ [ 66.706949, 44.176806, 0.0 ], [ 66.706845, 44.176804, 0.0 ], [ 66.706855, 44.176597, 0.0 ], [ 66.709196, 44.176623, 0.0 ], [ 66.706855, 44.176597, 0.0 ], [ 66.706845, 44.176804, 0.0 ], [ 66.705765, 44.176753, 0.0 ], [ 66.705269, 44.17667, 0.0 ], [ 66.705204, 44.176558, 0.0 ], [ 66.700279, 44.176879, 0.0 ], [ 66.705204, 44.176558, 0.0 ], [ 66.705269, 44.17667, 0.0 ], [ 66.70039, 44.177008, 0.0 ] ] } },
{ "type": "Feature", "properties": { "Name": "ВЛ-0,4 кВ от КТПН-10/0,4 кВ №620", "description": "Фидер №2<br>Запитано от: КТПН-10/0,4 кВ №620<br><br>Гео-схема:<br>https://www.google.com/maps/d/u/0/edit?hl=ru&mid=1cWNUz3QWJ5KG9lwSqPsnM0Hs61afWbs&ll=44.17801775278168%2C66.70330934252141&z=17  <br><br>По опорная схема:<br>https://docs.google.com/drawings/d/1W6JX9aAgD21pQhBadIHsd3U85luF85IU2VyCEsHT-9U/edit", "tessellate": 1, "extrude": 0, "visibility": -1 }, "geometry": { "type": "LineString", "coordinates": [ [ 66.706949, 44.176806, 0.0 ], [ 66.706845, 44.176804, 0.0 ], [ 66.705765, 44.176753, 0.0 ], [ 66.705879, 44.177476, 0.0 ], [ 66.700391, 44.177828, 0.0 ], [ 66.705879, 44.177476, 0.0 ], [ 66.705932, 44.177692, 0.0 ], [ 66.705832, 44.177589, 0.0 ], [ 66.700326, 44.177957, 0.0 ], [ 66.705832, 44.177589, 0.0 ], [ 66.705932, 44.177692, 0.0 ], [ 66.706025, 44.178416, 0.0 ], [ 66.703044, 44.178621, 0.0 ], [ 66.700595, 44.17875, 0.0 ], [ 66.703044, 44.178621, 0.0 ], [ 66.706025, 44.178416, 0.0 ], [ 66.70603, 44.178583, 0.0 ], [ 66.703055, 44.178758, 0.0 ], [ 66.700567, 44.178872, 0.0 ], [ 66.703055, 44.178758, 0.0 ], [ 66.703206, 44.179592, 0.0 ], [ 66.70071, 44.17973, 0.0 ] ] } },
{ "type": "Feature", "properties": { "Name": "ВЛ-0,4 кВ от КТПБ-10/0,4 кВ №270", "description": "Фидер №1<br>Запитано от: КТПБ-10/0,4 кВ №270<br><br>Гео-схема:<br>https://www.google.com/maps/d/u/0/edit?hl=ru&mid=1oeJPnaJ1-w-NDnqTX8t3FtjgiBUtnC4&ll=44.17805757582719%2C66.7203962726272&z=16 <br><br>По опорная схема:<br>https://docs.google.com/drawings/d/1f_MODdezK1O-QtrESpPzH1Sj7GKUH2Cpm6x4wT1mS44/edit", "tessellate": 1, "extrude": 0, "visibility": -1 }, "geometry": { "type": "LineString", "coordinates": [ [ 66.720857, 44.178409, 0.0 ], [ 66.720898, 44.178472, 0.0 ], [ 66.721302, 44.178787, 0.0 ], [ 66.722084, 44.178394, 0.0 ], [ 66.722283, 44.178177, 0.0 ], [ 66.72205, 44.177909, 0.0 ], [ 66.722336, 44.177892, 0.0 ], [ 66.72205, 44.177909, 0.0 ], [ 66.721877, 44.177711, 0.0 ], [ 66.721599, 44.177921, 0.0 ], [ 66.721877, 44.177711, 0.0 ], [ 66.72165, 44.177488, 0.0 ], [ 66.721479, 44.177589, 0.0 ], [ 66.721168, 44.177716, 0.0 ], [ 66.721479, 44.177589, 0.0 ], [ 66.72165, 44.177488, 0.0 ], [ 66.721812, 44.177328, 0.0 ], [ 66.722918, 44.176785, 0.0 ], [ 66.721812, 44.177328, 0.0 ], [ 66.721017, 44.176467, 0.0 ], [ 66.721812, 44.177328, 0.0 ], [ 66.72165, 44.177488, 0.0 ], [ 66.721456, 44.177247, 0.0 ], [ 66.720876, 44.177604, 0.0 ], [ 66.721456, 44.177247, 0.0 ], [ 66.720926, 44.176613, 0.0 ], [ 66.72037, 44.176799, 0.0 ], [ 66.720067, 44.176735, 0.0 ], [ 66.72037, 44.176799, 0.0 ], [ 66.720926, 44.176613, 0.0 ], [ 66.7207, 44.176303, 0.0 ] ] } },
{ "type": "Feature", "properties": { "Name": "ВЛ-0,4 кВ от КТПБ-10/0,4 кВ №270", "description": "Фидер №2<br>Запитано от: КТПБ-10/0,4 кВ №270<br><br>Гео-схема:<br>https://www.google.com/maps/d/u/0/edit?hl=ru&mid=1oeJPnaJ1-w-NDnqTX8t3FtjgiBUtnC4&ll=44.17805757582719%2C66.7203962726272&z=16 <br><br>По опорная схема:<br>https://docs.google.com/drawings/d/1f_MODdezK1O-QtrESpPzH1Sj7GKUH2Cpm6x4wT1mS44/edit", "tessellate": 1, "extrude": 0, "visibility": -1 }, "geometry": { "type": "LineString", "coordinates": [ [ 66.714379, 44.182, 0.0 ], [ 66.717674, 44.180266, 0.0 ], [ 66.717912, 44.180318, 0.0 ], [ 66.719146, 44.179788, 0.0 ], [ 66.720352, 44.179174, 0.0 ], [ 66.720754, 44.179059, 0.0 ], [ 66.720442, 44.178865, 0.0 ], [ 66.719358, 44.178382, 0.0 ], [ 66.719242, 44.178414, 0.0 ], [ 66.71799, 44.17955, 0.0 ], [ 66.719242, 44.178414, 0.0 ], [ 66.718268, 44.178012, 0.0 ], [ 66.717635, 44.177779, 0.0 ], [ 66.71683, 44.177545, 0.0 ], [ 66.715737, 44.177245, 0.0 ], [ 66.71683, 44.177545, 0.0 ], [ 66.717635, 44.177779, 0.0 ], [ 66.718268, 44.178012, 0.0 ], [ 66.719242, 44.178414, 0.0 ], [ 66.719358, 44.178382, 0.0 ], [ 66.720442, 44.178865, 0.0 ], [ 66.720754, 44.179059, 0.0 ], [ 66.721302, 44.178787, 0.0 ], [ 66.720898, 44.178472, 0.0 ], [ 66.720857, 44.178409, 0.0 ] ] } },
{ "type": "Feature", "properties": { "Name": "ВЛ-0,4 кВ от КТПБ-10/0,4 кВ №270", "description": "Фидер №3<br>Запитано от: КТПБ-10/0,4 кВ №270<br><br>Гео-схема:<br>https://www.google.com/maps/d/u/0/edit?hl=ru&mid=1oeJPnaJ1-w-NDnqTX8t3FtjgiBUtnC4&ll=44.17805757582719%2C66.7203962726272&z=16 <br><br>По опорная схема:<br>https://docs.google.com/drawings/d/1f_MODdezK1O-QtrESpPzH1Sj7GKUH2Cpm6x4wT1mS44/edit", "tessellate": 1, "extrude": 0, "visibility": -1 }, "geometry": { "type": "LineString", "coordinates": [ [ 66.720822, 44.178353, 0.0 ], [ 66.72074, 44.178294, 0.0 ], [ 66.720573, 44.178301, 0.0 ], [ 66.719621, 44.177869, 0.0 ], [ 66.71871, 44.17748, 0.0 ], [ 66.717661, 44.177092, 0.0 ], [ 66.71644, 44.1766494, 0.0 ], [ 66.7159914, 44.1765838, 0.0 ], [ 66.7138217, 44.1763892, 0.0 ], [ 66.7124931, 44.176348, 0.0 ], [ 66.7138217, 44.1763892, 0.0 ], [ 66.7159914, 44.1765838, 0.0 ], [ 66.715998, 44.1764656, 0.0 ], [ 66.7158866, 44.176132, 0.0 ], [ 66.7157414, 44.1757441, 0.0 ], [ 66.7158866, 44.176132, 0.0 ], [ 66.715998, 44.1764656, 0.0 ], [ 66.7159914, 44.1765838, 0.0 ], [ 66.71644, 44.1766494, 0.0 ], [ 66.717661, 44.177092, 0.0 ], [ 66.71871, 44.17748, 0.0 ], [ 66.719621, 44.177869, 0.0 ], [ 66.720573, 44.178301, 0.0 ], [ 66.72074, 44.178294, 0.0 ], [ 66.720541, 44.17817, 0.0 ], [ 66.7195, 44.177723, 0.0 ], [ 66.719765, 44.177369, 0.0 ], [ 66.720382, 44.177609, 0.0 ], [ 66.719765, 44.177369, 0.0 ], [ 66.7195, 44.177723, 0.0 ], [ 66.718606, 44.177339, 0.0 ], [ 66.718807, 44.177101, 0.0 ], [ 66.719042, 44.176883, 0.0 ], [ 66.718836, 44.176315, 0.0 ], [ 66.718387, 44.176355, 0.0 ], [ 66.717765, 44.176302, 0.0 ], [ 66.718387, 44.176355, 0.0 ], [ 66.718836, 44.176315, 0.0 ], [ 66.719042, 44.176883, 0.0 ], [ 66.718807, 44.177101, 0.0 ], [ 66.718606, 44.177339, 0.0 ], [ 66.716612, 44.176583, 0.0 ], [ 66.716497, 44.176503, 0.0 ], [ 66.71664, 44.176308, 0.0 ] ] } },
{ "type": "Feature", "properties": { "Name": "ВЛ-0,4 кВ от КТПН-10/0,4 кВ №779", "description": "Фидер №1 и №2<br>Запитано от: КТПН-10/0,4 кВ №779", "tessellate": 1, "extrude": 0, "visibility": -1 }, "geometry": { "type": "LineString", "coordinates": [ [ 66.705573, 44.175435, 0.0 ], [ 66.706419, 44.175531, 0.0 ], [ 66.70806, 44.175638, 0.0 ], [ 66.709924, 44.175661, 0.0 ], [ 66.710043, 44.175639, 0.0 ], [ 66.709776, 44.175778, 0.0 ], [ 66.708105, 44.175739, 0.0 ], [ 66.706001, 44.175599, 0.0 ], [ 66.708105, 44.175739, 0.0 ], [ 66.709776, 44.175778, 0.0 ], [ 66.710438, 44.175802, 0.0 ], [ 66.710786, 44.175897, 0.0 ], [ 66.711704, 44.17572, 0.0 ], [ 66.710786, 44.175897, 0.0 ], [ 66.710438, 44.175802, 0.0 ], [ 66.709776, 44.175778, 0.0 ], [ 66.710043, 44.175639, 0.0 ], [ 66.710298, 44.175667, 0.0 ], [ 66.71056, 44.175644, 0.0 ], [ 66.71055, 44.175302, 0.0 ], [ 66.7108, 44.17528, 0.0 ], [ 66.711952, 44.175044, 0.0 ], [ 66.7108, 44.17528, 0.0 ], [ 66.71055, 44.175302, 0.0 ], [ 66.71024, 44.174733, 0.0 ], [ 66.709359, 44.174806, 0.0 ], [ 66.70836, 44.174877, 0.0 ], [ 66.707823, 44.174925, 0.0 ] ] } },
{ "type": "Feature", "properties": { "Name": "ВЛ-0,4 кВ от КТПН-10/0,4 кВ №150", "description": "Фидер №1<br>Запитано от: КТПН-10/0,4 кВ №150<br><br>Гео-схема:<br>https://www.google.com/maps/d/u/0/edit?hl=ru&mid=1i5OHxaRgQ0E_nEFADtz6F540WyW_1Yc&ll=44.17497557848079%2C66.71529809319131&z=17<br><br>По опорная схема:<br>Версия-1)https://drive.google.com/file/d/1aPhHnSzlZUxYIXA_54ttY0Jl69mVU66n/view?usp=sharing<br>Версия-2)https://drive.google.com/file/d/1y4K55AMN7mXisiEopsSA7QoL-uIRIJyB/view?usp=sharing", "tessellate": 1, "extrude": 0, "visibility": -1 }, "geometry": { "type": "LineString", "coordinates": [ [ 66.711055, 44.176613, 0.0 ], [ 66.711507, 44.176528, 0.0 ], [ 66.71153, 44.176264, 0.0 ], [ 66.711434, 44.176089, 0.0 ], [ 66.71153, 44.176264, 0.0 ], [ 66.7119, 44.176178, 0.0 ], [ 66.712041, 44.175948, 0.0 ], [ 66.711962, 44.1756, 0.0 ], [ 66.712041, 44.175948, 0.0 ], [ 66.712548, 44.175728, 0.0 ], [ 66.712403, 44.175413, 0.0 ], [ 66.712249, 44.175082, 0.0 ], [ 66.711958, 44.174962, 0.0 ], [ 66.711435, 44.175044, 0.0 ], [ 66.711958, 44.174962, 0.0 ], [ 66.712249, 44.175082, 0.0 ], [ 66.712125, 44.17476, 0.0 ], [ 66.71193, 44.174336, 0.0 ], [ 66.711514, 44.174343, 0.0 ], [ 66.711182, 44.174406, 0.0 ], [ 66.710591, 44.174493, 0.0 ], [ 66.711182, 44.174406, 0.0 ], [ 66.711514, 44.174343, 0.0 ], [ 66.71193, 44.174336, 0.0 ], [ 66.712125, 44.17476, 0.0 ], [ 66.712363, 44.174693, 0.0 ], [ 66.712834, 44.17461, 0.0 ], [ 66.712363, 44.174693, 0.0 ], [ 66.712125, 44.17476, 0.0 ], [ 66.712249, 44.175082, 0.0 ], [ 66.712403, 44.175413, 0.0 ], [ 66.712548, 44.175728, 0.0 ], [ 66.712822, 44.175572, 0.0 ], [ 66.713174, 44.175386, 0.0 ], [ 66.713648, 44.175234, 0.0 ], [ 66.714106, 44.17509, 0.0 ], [ 66.714445, 44.174894, 0.0 ], [ 66.714532, 44.174542, 0.0 ], [ 66.714407, 44.17447, 0.0 ], [ 66.714532, 44.174542, 0.0 ], [ 66.714445, 44.174894, 0.0 ], [ 66.714933, 44.17473, 0.0 ], [ 66.714895, 44.174533, 0.0 ], [ 66.71491, 44.17439, 0.0 ], [ 66.714933, 44.174012, 0.0 ], [ 66.714465, 44.174094, 0.0 ], [ 66.714031, 44.17422, 0.0 ], [ 66.713644, 44.174305, 0.0 ], [ 66.713194, 44.174397, 0.0 ], [ 66.713644, 44.174305, 0.0 ], [ 66.714031, 44.17422, 0.0 ], [ 66.714465, 44.174094, 0.0 ], [ 66.714933, 44.174012, 0.0 ], [ 66.715369, 44.173936, 0.0 ], [ 66.715721, 44.173834, 0.0 ], [ 66.716415, 44.173718, 0.0 ], [ 66.716844, 44.173658, 0.0 ], [ 66.717456, 44.173572, 0.0 ], [ 66.716844, 44.173658, 0.0 ], [ 66.716415, 44.173718, 0.0 ], [ 66.715721, 44.173834, 0.0 ], [ 66.715369, 44.173936, 0.0 ], [ 66.714933, 44.174012, 0.0 ], [ 66.71491, 44.17439, 0.0 ], [ 66.714895, 44.174533, 0.0 ], [ 66.714933, 44.17473, 0.0 ], [ 66.715534, 44.174635, 0.0 ], [ 66.715909, 44.174574, 0.0 ], [ 66.716281, 44.174492, 0.0 ], [ 66.716862, 44.174375, 0.0 ], [ 66.717525, 44.174211, 0.0 ], [ 66.717969, 44.174103, 0.0 ], [ 66.717791, 44.173844, 0.0 ], [ 66.717972, 44.173752, 0.0 ], [ 66.7181, 44.173559, 0.0 ], [ 66.718221, 44.173446, 0.0 ] ] } },
{ "type": "Feature", "properties": { "Name": "ВЛ-0,4 кВ от ТП-10/0,4 кВ №310", "description": "Фидер №1<br>Запитано от: ТП-10/0,4 кВ №310<br><br>Гео-схема:<br>https://www.google.com/maps/d/u/0/edit?hl=ru&mid=1N0DG7kjc064L5D7bBjyVUcLiFcYFUbc&ll=44.17842885684917%2C66.71551748169199&z=16 <br><br>По опорная схема:<br>https://docs.google.com/drawings/d/1fId0t0N1JkJTWk4VXVZYY03DYUiSI3h7Smr7ljWBM0U/edit", "tessellate": 1, "extrude": 0, "visibility": -1 }, "geometry": { "type": "LineString", "coordinates": [ [ 66.714752, 44.17772, 0.0 ], [ 66.714557, 44.177756, 0.0 ], [ 66.71322, 44.177288, 0.0 ], [ 66.712776, 44.177228, 0.0 ], [ 66.712803, 44.177376, 0.0 ], [ 66.711611, 44.177248, 0.0 ], [ 66.712803, 44.177376, 0.0 ], [ 66.712776, 44.177228, 0.0 ], [ 66.711812, 44.177106, 0.0 ], [ 66.710098, 44.176971, 0.0 ] ] } },
{ "type": "Feature", "properties": { "Name": "ВЛ-0,4 кВ от ТП-10/0,4 кВ №310", "description": "Фидер №3<br>Запитано от: ТП-10/0,4 кВ №310<br><br>Гео-схема:<br>https://www.google.com/maps/d/u/0/edit?hl=ru&mid=1N0DG7kjc064L5D7bBjyVUcLiFcYFUbc&ll=44.17842885684917%2C66.71551748169199&z=16 <br><br>По опорная схема:<br>https://docs.google.com/drawings/d/1fId0t0N1JkJTWk4VXVZYY03DYUiSI3h7Smr7ljWBM0U/edit", "tessellate": 1, "extrude": 0, "visibility": -1 }, "geometry": { "type": "LineString", "coordinates": [ [ 66.714839, 44.177771, 0.0 ], [ 66.714897, 44.177874, 0.0 ], [ 66.716111, 44.178995, 0.0 ], [ 66.715802, 44.178995, 0.0 ], [ 66.715442, 44.178706, 0.0 ], [ 66.71193, 44.180641, 0.0 ] ] } },
{ "type": "Feature", "properties": { "Name": "ВЛ-0,4 кВ от ТП-10/0,4 кВ №310", "description": "Фидер №2<br>Запитано от: ТП-10/0,4 кВ №310<br><br>Гео-схема:<br>https://www.google.com/maps/d/u/0/edit?hl=ru&mid=1N0DG7kjc064L5D7bBjyVUcLiFcYFUbc&ll=44.17842885684917%2C66.71551748169199&z=16 <br><br>По опорная схема:<br>https://docs.google.com/drawings/d/1fId0t0N1JkJTWk4VXVZYY03DYUiSI3h7Smr7ljWBM0U/edit", "tessellate": 1, "extrude": 0, "visibility": -1 }, "geometry": { "type": "LineString", "coordinates": [ [ 66.714816, 44.177785, 0.0 ], [ 66.714593, 44.177997, 0.0 ], [ 66.714109, 44.177839, 0.0 ], [ 66.713885, 44.177818, 0.0 ], [ 66.710428, 44.179701, 0.0 ], [ 66.713885, 44.177818, 0.0 ], [ 66.714109, 44.177839, 0.0 ], [ 66.710395, 44.179885, 0.0 ], [ 66.710789, 44.180208, 0.0 ], [ 66.711242, 44.180561, 0.0 ], [ 66.71157, 44.180663, 0.0 ], [ 66.711772, 44.180593, 0.0 ], [ 66.715182, 44.1787, 0.0 ], [ 66.715314, 44.178561, 0.0 ], [ 66.715106, 44.178376, 0.0 ] ] } },
{ "type": "Feature", "properties": { "Name": "ВЛ-0,4 кВ от ТП-10/0,4 кВ №310", "description": "Фидер №4<br>Запитано от: ТП-10/0,4 кВ №310<br><br>Гео-схема:<br>https://www.google.com/maps/d/u/0/edit?hl=ru&mid=1N0DG7kjc064L5D7bBjyVUcLiFcYFUbc&ll=44.17842885684917%2C66.71551748169199&z=16 <br><br>По опорная схема:<br>https://docs.google.com/drawings/d/1fId0t0N1JkJTWk4VXVZYY03DYUiSI3h7Smr7ljWBM0U/edit", "tessellate": 1, "extrude": 0, "visibility": -1 }, "geometry": { "type": "LineString", "coordinates": [ [ 66.714856, 44.177763, 0.0 ], [ 66.71504, 44.177921, 0.0 ], [ 66.714826, 44.178143, 0.0 ], [ 66.711596, 44.179934, 0.0 ], [ 66.711073, 44.18042, 0.0 ], [ 66.711596, 44.179934, 0.0 ], [ 66.714826, 44.178143, 0.0 ], [ 66.71504, 44.177921, 0.0 ], [ 66.714826, 44.178143, 0.0 ], [ 66.715894, 44.179089, 0.0 ], [ 66.715556, 44.179307, 0.0 ], [ 66.716003, 44.17974, 0.0 ], [ 66.716376, 44.18021, 0.0 ], [ 66.716729, 44.18033, 0.0 ], [ 66.716376, 44.18021, 0.0 ], [ 66.714236, 44.181256, 0.0 ], [ 66.716376, 44.18021, 0.0 ], [ 66.716003, 44.17974, 0.0 ], [ 66.715556, 44.179307, 0.0 ], [ 66.714804, 44.179647, 0.0 ], [ 66.715051, 44.179894, 0.0 ], [ 66.714804, 44.179647, 0.0 ], [ 66.714359, 44.17989, 0.0 ], [ 66.713899, 44.180068, 0.0 ], [ 66.713522, 44.180161, 0.0 ], [ 66.712485, 44.18072, 0.0 ] ] } },
{ "type": "Feature", "properties": { "Name": "ВЛ-0,4 кВ от ТП-10/0,4 кВ №310", "description": "Фидер №5<br>Запитано от: ТП-10/0,4 кВ №310<br><br>Гео-схема:<br>https://www.google.com/maps/d/u/0/edit?hl=ru&mid=1N0DG7kjc064L5D7bBjyVUcLiFcYFUbc&ll=44.17842885684917%2C66.71551748169199&z=16 <br><br>По опорная схема:<br>https://docs.google.com/drawings/d/1fId0t0N1JkJTWk4VXVZYY03DYUiSI3h7Smr7ljWBM0U/edit", "tessellate": 1, "extrude": 0, "visibility": -1 }, "geometry": { "type": "LineString", "coordinates": [ [ 66.714866, 44.17775, 0.0 ], [ 66.714911, 44.177736, 0.0 ], [ 66.715045, 44.177886, 0.0 ], [ 66.716008, 44.178735, 0.0 ], [ 66.71621, 44.1787, 0.0 ], [ 66.716663, 44.178689, 0.0 ], [ 66.71621, 44.1787, 0.0 ], [ 66.716008, 44.178735, 0.0 ], [ 66.71655, 44.179214, 0.0 ], [ 66.717114, 44.178887, 0.0 ], [ 66.71655, 44.179214, 0.0 ], [ 66.717037, 44.17942, 0.0 ] ] } },
{ "type": "Feature", "properties": { "Name": "ВЛ-0,4 кВ от КТПБ-10/0,4 кВ №85", "description": "Фидер №1<br>Запитано от: КТПБ-10/0,4 кВ №85<br><br>Гео-схема:<br>https://www.google.com/maps/d/u/0/edit?hl=ru&mid=1LIbX3aJUsJGqcRZZO-NFwV51YaxRwEY&ll=44.18297606231951%2C66.71191496512581&z=17<br><br>По опорная схема:<br>https://docs.google.com/drawings/d/1x-ett5zL-5TzwYV30PeqKt906_GpVRqrBibj5Oz48m8/edit", "tessellate": 1, "extrude": 0, "visibility": -1 }, "geometry": { "type": "LineString", "coordinates": [ [ 66.709213, 44.184487, 0.0 ], [ 66.709122, 44.18459, 0.0 ], [ 66.709117, 44.184822, 0.0 ], [ 66.70812, 44.185348, 0.0 ], [ 66.709117, 44.184822, 0.0 ], [ 66.709122, 44.18459, 0.0 ], [ 66.708933, 44.184567, 0.0 ], [ 66.707793, 44.183464, 0.0 ], [ 66.707817, 44.183326, 0.0 ], [ 66.709539, 44.18246, 0.0 ], [ 66.710173, 44.183106, 0.0 ], [ 66.709539, 44.18246, 0.0 ], [ 66.707817, 44.183326, 0.0 ], [ 66.707793, 44.183464, 0.0 ], [ 66.707468, 44.183151, 0.0 ], [ 66.710016, 44.181715, 0.0 ], [ 66.707468, 44.183151, 0.0 ], [ 66.707362, 44.183018, 0.0 ], [ 66.711181, 44.180928, 0.0 ], [ 66.709657, 44.179441, 0.0 ] ] } },
{ "type": "Feature", "properties": { "Name": "ВЛ-0,4 кВ от КТПН-10/0,4 кВ №800", "description": "Фидер №1<br>Запитано от: КТПН-10/0,4 кВ №800<br><br>Гео-схема:<br>https://www.google.com/maps/d/u/0/edit?hl=ru&mid=1HfEnjU2oFvsI1oYEzfyTv9UGDoIHdNI&ll=44.180114367866835%2C66.70174928787782&z=18<br><br>По опорная схема: (новый вариант)<br>https://docs.google.com/drawings/d/1NDN-zSbYaxDdXtzymSZPhs8ALhlfuUX87mO21yDKb0M/edit<br><br>По опорная схема: (старый вариант)<br>https://drive.google.com/file/d/1pNPSgLJOhE61-psJ2vVpCBZvxAxvNUsg/view?usp=sharing", "tessellate": 1, "extrude": 0, "visibility": -1 }, "geometry": { "type": "LineString", "coordinates": [ [ 66.700613, 44.179752, 0.0 ], [ 66.700598, 44.179838, 0.0 ], [ 66.704011, 44.179636, 0.0 ], [ 66.704696, 44.179621, 0.0 ], [ 66.704011, 44.179636, 0.0 ], [ 66.700598, 44.179838, 0.0 ], [ 66.700464, 44.179848, 0.0 ], [ 66.70046, 44.180052, 0.0 ], [ 66.700577, 44.18059, 0.0 ], [ 66.700978, 44.180765, 0.0 ], [ 66.703884, 44.180609, 0.0 ], [ 66.700978, 44.180765, 0.0 ], [ 66.701007, 44.180651, 0.0 ], [ 66.703825, 44.180515, 0.0 ] ] } },
{ "type": "Feature", "properties": { "Name": "ВЛ-0,4 кВ от КТПБ-10/0,4 кВ №308", "description": "Фидер №1<br>Запитано от: КТПБ-10/0,4 кВ №308", "tessellate": 1, "extrude": 0, "visibility": -1 }, "geometry": { "type": "LineString", "coordinates": [ [ 66.733025, 44.169242, 0.0 ], [ 66.733296, 44.168646, 0.0 ], [ 66.733394, 44.168502, 0.0 ], [ 66.733455, 44.168363, 0.0 ], [ 66.73388, 44.168468, 0.0 ], [ 66.733529, 44.169715, 0.0 ], [ 66.733451, 44.169892, 0.0 ], [ 66.733567, 44.169947, 0.0 ], [ 66.733867, 44.17, 0.0 ], [ 66.734801, 44.170921, 0.0 ], [ 66.733867, 44.17, 0.0 ], [ 66.733567, 44.169947, 0.0 ], [ 66.733451, 44.169892, 0.0 ], [ 66.733529, 44.169715, 0.0 ], [ 66.73388, 44.168468, 0.0 ], [ 66.733455, 44.168363, 0.0 ], [ 66.733516, 44.168237, 0.0 ], [ 66.733082, 44.168146, 0.0 ], [ 66.733196, 44.167933, 0.0 ], [ 66.733082, 44.168146, 0.0 ], [ 66.732007, 44.167958, 0.0 ], [ 66.733082, 44.168146, 0.0 ], [ 66.733516, 44.168237, 0.0 ], [ 66.733936, 44.168254, 0.0 ], [ 66.734101, 44.167835, 0.0 ] ] } },
{ "type": "Feature", "properties": { "Name": "ВЛ-0,4 кВ от КТПН-10/0,4 кВ №82", "description": "Фидер №1<br>Запитано от: КТПН-10/0,4 кВ №82<br><br>Гео-схема: <br>https://www.google.com/maps/d/u/0/edit?hl=ru&mid=1KjTd8KmLl889ezqtDOI9ZPYnURX5Bl0&ll=44.16366921581066%2C66.73110621259707&z=17<br><br>По опорная схема:<br>https://docs.google.com/drawings/d/1dtaJmglEP2wMdup6lLVloZo1mJ8Mn10ZsBcRCjjzacc/edit", "tessellate": 1, "extrude": 0, "visibility": -1 }, "geometry": { "type": "LineString", "coordinates": [ [ 66.728326, 44.162773, 0.0 ], [ 66.728292, 44.162856, 0.0 ], [ 66.727596, 44.162748, 0.0 ], [ 66.727569, 44.162987, 0.0 ], [ 66.727596, 44.162748, 0.0 ], [ 66.727337, 44.162664, 0.0 ], [ 66.727153, 44.162648, 0.0 ], [ 66.725805, 44.16434, 0.0 ], [ 66.727153, 44.162648, 0.0 ], [ 66.728356, 44.161192, 0.0 ], [ 66.728648, 44.16122, 0.0 ], [ 66.728879, 44.160797, 0.0 ], [ 66.728903, 44.160576, 0.0 ] ] } },
{ "type": "Feature", "properties": { "Name": "ВЛ-0,4 кВ от КТПН-10/0,4 кВ №82", "description": "Фидер №2<br>Запитано от: КТПН-10/0,4 кВ №82<br><br>Гео-схема: <br>https://www.google.com/maps/d/u/0/edit?hl=ru&mid=1KjTd8KmLl889ezqtDOI9ZPYnURX5Bl0&ll=44.16366921581066%2C66.73110621259707&z=17<br><br>По опорная схема:<br>https://docs.google.com/drawings/d/1dtaJmglEP2wMdup6lLVloZo1mJ8Mn10ZsBcRCjjzacc/edit", "tessellate": 1, "extrude": 0, "visibility": -1 }, "geometry": { "type": "LineString", "coordinates": [ [ 66.728393, 44.162766, 0.0 ], [ 66.728444, 44.162782, 0.0 ], [ 66.728401, 44.16269, 0.0 ], [ 66.732635, 44.163542, 0.0 ], [ 66.728401, 44.16269, 0.0 ], [ 66.728444, 44.162782, 0.0 ], [ 66.728927, 44.162884, 0.0 ], [ 66.728692, 44.163599, 0.0 ], [ 66.728446, 44.164182, 0.0 ], [ 66.727592, 44.164073, 0.0 ], [ 66.727061, 44.164604, 0.0 ], [ 66.727511, 44.164818, 0.0 ], [ 66.727061, 44.164604, 0.0 ], [ 66.727592, 44.164073, 0.0 ], [ 66.728446, 44.164182, 0.0 ], [ 66.729664, 44.164458, 0.0 ], [ 66.728446, 44.164182, 0.0 ], [ 66.728692, 44.163599, 0.0 ], [ 66.728927, 44.162884, 0.0 ], [ 66.730473, 44.163206, 0.0 ], [ 66.730022, 44.16452, 0.0 ], [ 66.730473, 44.163206, 0.0 ], [ 66.732384, 44.163587, 0.0 ] ] } }
]
}
